{
  "version": 0.6,
  "generator": "Overpass API 0.7.56.1004 6cd3eaec",
  "osm3s": {
    "timestamp_osm_base": "2020-06-02T12:01:02Z",
    "timestamp_areas_base": "2020-03-06T11:03:01Z",
    "copyright": "The data included in this document is from www.openstreetmap.org. The data is made available under ODbL."
  },
  "elements": [

{
  "type": "node",
  "id": 311317251,
  "lat": 45.1851904,
  "lon": 5.7204375,
  "tags": {
    "addr:city": "Grenoble",
    "addr:housenumber": "7",
    "addr:postcode": "38000",
    "addr:street": "Place Condorcet",
    "bulk_purchase": "only",
    "name": "day by day - Mon épicerie en vrac",
    "opening_hours": "Tu-Su 09:30-13:00, 15:00-19:30",
    "opening_hours:covid19": "Tu-Su 09:30-13:00,15:00-19:00",
    "operator": "Mon sac en vrac",
    "organic": "yes",
    "shop": "convenience",
    "source": "survey",
    "survey:date": "2019-12-30",
    "website": "http://daybyday-shop.com/magasin/grenoble",
    "wheelchair": "no"
  }
},
{
  "type": "node",
  "id": 494250168,
  "lat": 48.5803527,
  "lon": 7.7576090,
  "tags": {
    "addr:housenumber": "21",
    "bulk_purchase": "only",
    "description": "épicerie de produits en vrac",
    "entrance": "main",
    "name": "Le Bocal",
    "opening_hours": "Tu-Fr 10:00-19:00; Sa 10:00-17:00",
    "opening_hours:covid19": "Mo-Sa 10:00-15:00",
    "organic": "yes",
    "phone": "+33 3 88 36 70 61",
    "shop": "convenience",
    "source": "survey",
    "wheelchair": "limited"
  }
},
{
  "type": "node",
  "id": 521232558,
  "lat": 45.7596558,
  "lon": 4.8471882,
  "tags": {
    "bulk_purchase": "only",
    "delivery:covid19": "yes",
    "description": "Épicerie à la fois locavore (qui privilégie des produits issus d’une agriculture locale, dans un rayon de 200km autour de Lyon), et zéro déchet (pour réduire au maximum les emballages).",
    "description:covid19": "détails sur leur site https://www.alasource-lyon.com/",
    "name": "À la Source",
    "opening_hours": "Mo-Fr 11:00-14:30;15:30-20:00; Sa 10:00-19:00; Su 10:00-13:00",
    "opening_hours:covid19": "Mo-Fr 10:00-13:00,16:00-19:00;Sa 10:00-19:00",
    "payment:cards": "yes",
    "payment:cash": "yes",
    "phone": "+33 6 37 19 06 26",
    "ref:FR:SIRET": "82777302900018",
    "shop": "convenience",
    "website": "https://alasource-lyon.com/",
    "wheelchair": "yes"
  }
},
{
  "type": "node",
  "id": 583243358,
  "lat": 48.5927642,
  "lon": 7.7235559,
  "tags": {
    "bulk_purchase": "only",
    "contact:email": "contact@beevrac.fr",
    "contact:housenumber": "36",
    "contact:phone": "+33 9 81 36 26 24",
    "contact:website": "https://Beevrac.fr",
    "description": "Epicerie 100% Vrac, Zéro Déchets, Bio. Alimentaire, Cosmétique, Entretien",
    "entrance": "main",
    "name": "BeeVrac",
    "opening_hours": "Tu-Fr 10:00-13:00,14:30-19:30; Sa 10:00-17:00",
    "opening_hours:covid19": "Tu,Th,Fr 10:00-13:00,15:00-18:00",
    "organic": "only",
    "payment:cash": "yes",
    "payment:credit_cards": "yes",
    "payment:mastercard": "yes",
    "payment:visa": "yes",
    "shop": "convenience"
  }
},
{
  "type": "node",
  "id": 1017755219,
  "lat": 48.0932839,
  "lon": -4.3288640,
  "tags": {
    "addr:city": "Douarnenez",
    "addr:housenumber": "1",
    "addr:postcode": "29100",
    "addr:street": "Rue Jean Bart",
    "bulk_purchase": "only",
    "facebook": "https://www.facebook.com/mamiemesuredouarnenez",
    "name": "Mamie Mesure",
    "opening_hours": "Tu-Fr 10:00-19:00; Sa 09:00-19:00",
    "opening_hours:covid19": "same",
    "shop": "convenience",
    "website": "https://mamiemesure.fr/"
  }
},
{
  "type": "node",
  "id": 1034064322,
  "lat": 43.2944709,
  "lon": 5.3852175,
  "tags": {
    "bulk_purchase": "only",
    "contact:facebook": "https://www.facebook.com/OVRACMARSEILLE",
    "contact:website": "https://www.epicerieovrac.com/",
    "name": "O Vrac",
    "opening_hours:covid19": "Mo-Sa 09:30-13:00, 15:00-18:30;",
    "organic": "yes",
    "shop": "convenience"
  }
},
{
  "type": "node",
  "id": 1034073369,
  "lat": 47.2102484,
  "lon": -1.7282223,
  "tags": {
    "addr:housenumber": "8",
    "addr:postcode": "44220",
    "addr:street": "Rue Alcide et Charles d'Orbigny",
    "bulk_purchase": "only",
    "contact:email": "contact@epicerie-leptitpoids.fr",
    "name": "Le P'tit Poids",
    "opening_hours": "Tu-Th 09:00-12:30, 14:30-19:00; Fr 09:00-12:30, 15:30-19:00; Sa 09:30-12:30, 15:00-19:00",
    "organic": "yes",
    "phone": "+33 983028722",
    "shop": "convenience",
    "source:bulk_purchase": "Collectif J'aime tes bocaux",
    "website": "https://epicerie-leptitpoids.fr/"
  }
},
{
  "type": "node",
  "id": 1117133747,
  "lat": 48.6739644,
  "lon": 5.8872570,
  "tags": {
    "bulk_purchase": "only",
    "change:XLT-FLOR": "yes",
    "contact:email": "latoutvrac@gmail.com",
    "contact:facebook": "https://www.facebook.com/LATOUTVRAC/",
    "contact:phone": "+33 6 24833787",
    "currency:XLT": "FLOR",
    "delivery:covid19": "yes",
    "description:covid19": "Livraison gratuite sur Toul. Paiement par carte bancaire.",
    "name": "L’Atout Vrac",
    "opening_hours:covid19": "Mo-Sa 10:00-12:30,15:00-18:00",
    "organic": "yes",
    "payment:cash:XLT-FLOR": "yes",
    "shop": "convenience",
    "source": "survey",
    "takeaway:covid19": "only"
  }
},
{
  "type": "node",
  "id": 1240746153,
  "lat": 48.8951432,
  "lon": -0.2007032,
  "tags": {
    "bulk_purchase": "only",
    "contact:facebook": "https://www.facebook.com/L%C3%A9picerie-Autrement-262137701204009/",
    "name": "L'épicerie Autrement",
    "organic": "yes",
    "shop": "convenience"
  }
},
{
  "type": "node",
  "id": 1252383970,
  "lat": 48.8374843,
  "lon": 2.3911738,
  "tags": {
    "addr:city": "Paris",
    "addr:housenumber": "237",
    "addr:postcode": "75012",
    "addr:street": "Rue de Charenton",
    "bulk_purchase": "only",
    "dog": "no",
    "name": "Day by Day",
    "note": "Magasin en vrac",
    "opening_hours": "Mo-Sa 09:00-18:00",
    "opening_hours:covid19": "open",
    "organic": "yes",
    "phone": "+33987706924",
    "shop": "convenience",
    "source": "cadastre-dgi-fr source : Direction Générale des Impôts - Cadastre;mise à jour : 2011",
    "website": "http://daybyday-shop.com/magasin/paris-12e"
  }
},
{
  "type": "node",
  "id": 1421683057,
  "lat": 48.8372710,
  "lon": -1.5932280,
  "tags": {
    "addr:city": "Granville",
    "addr:housenumber": "84",
    "addr:postcode": "50400",
    "addr:street": "Rue Couraye",
    "bulk_purchase": "only",
    "name": "Mon Panier Malice",
    "organic": "yes",
    "shop": "convenience",
    "website": "https://www.monpaniermalice.fr/"
  }
},
{
  "type": "node",
  "id": 1425224411,
  "lat": 47.6400703,
  "lon": -2.9484064,
  "tags": {
    "addr:housenumber": "2",
    "addr:street": "Place de la République",
    "bulk_purchase": "only",
    "contact:facebook": "https://www.facebook.com/epiceriebonoloco",
    "name": "Bonoloco",
    "old_name": "L'Ile aux Fleurs",
    "organic": "yes",
    "shop": "convenience",
    "website": "https://www.bonoloco.fr/",
    "wheelchair": "yes"
  }
},
{
  "type": "node",
  "id": 1498519235,
  "lat": 49.3289627,
  "lon": 2.4650724,
  "tags": {
    "bulk_purchase": "only",
    "contact:facebook": "https://www.facebook.com/penseevrac/",
    "name": "Pensée Vrac",
    "organic": "only",
    "shop": "convenience",
    "website": "https://penseevrac.wordpress.com/"
  }
},
{
  "type": "node",
  "id": 1728042741,
  "lat": 45.7483398,
  "lon": 4.8392996,
  "tags": {
    "alt_name": "3 petits pois",
    "bulk_purchase": "only",
    "contact:facebook": "https://www.facebook.com/3petitspois",
    "contact:housenumber": "124",
    "contact:phone": "+33954185464",
    "description": "independant organic grocery",
    "name": "3 ptits pois",
    "opening_hours": "Mo 13:00-20:00; Tu-Sa 10:00-20:00; Th 10:00-13:00, 14:00-20:00; Tu-Sa 12:00-18:00",
    "opening_hours:covid19": "Tu,We,Fr 13:00-19:00; Th 14:00-19:00; Sa 10:00-18:30; May 9-11 Tu-Sa 12:00-18:00; May 8 off",
    "organic": "only",
    "phone": "+33954185464",
    "shop": "convenience",
    "website": "https://www.3petitspois.fr/"
  }
},
{
  "type": "node",
  "id": 1905663497,
  "lat": 45.3654978,
  "lon": 5.5936353,
  "tags": {
    "access:covid19": "yes",
    "addr:housenumber": "16",
    "bulk_purchase": "only",
    "contact:facebook": "https://www.facebook.com/montvrac",
    "name": "Mont Vrac",
    "opening_hours:covid19": "Tu-Sa 09:30-12:00",
    "organic": "only",
    "shop": "convenience"
  }
},
{
  "type": "node",
  "id": 2267314182,
  "lat": 46.7834562,
  "lon": 4.8567286,
  "tags": {
    "bulk_purchase": "only",
    "facebook": "https://www.facebook.com/2pois2mesures",
    "name": "2 poids, 2 mesures",
    "organic": "only",
    "shop": "convenience"
  }
},
{
  "type": "node",
  "id": 2458144305,
  "lat": 43.6030175,
  "lon": 1.4442396,
  "tags": {
    "addr:city": "Toulouse",
    "addr:postcode": "31000",
    "addr:street": "rue Baour-Lormian",
    "bulk_purchase": "only",
    "contact:housenumber": "7",
    "cuisine": "regional",
    "currency:XLT": "SVLT",
    "email": "bonjour@ceci-et-cela.fr",
    "name": "Ceci & cela",
    "opening_hours": "Mo 15:00-19:00; Tu-Sa 10:00-20:00",
    "opening_hours:covid19": "Tu-Sa 10:00-13:00,14:00-18:00",
    "organic": "yes",
    "payment:cash:XLT-SVLT": "yes",
    "phone": "+33 5 82 74 90 31",
    "ref:FR:NAF": "4711B",
    "ref:FR:SIRET": "81945850600014",
    "shop": "convenience",
    "source": "knowledge",
    "website": "http://www.ceci-et-cela.fr/"
  }
},
{
  "type": "node",
  "id": 2483199565,
  "lat": 47.4699261,
  "lon": -0.5513979,
  "tags": {
    "addr:housenumber": "22",
    "addr:street": "Rue Saint-Julien",
    "bulk_purchase": "only",
    "contact:facebook": "https://www.facebook.com/Epicerie2pauline/",
    "contact:phone": "+33 9 86 47 53 81",
    "delivery:covid19": "no",
    "description": "Epicerie bio",
    "description:covid19": "Commande possible pour venir la retirer en magasin",
    "name": "L'Epicerie 2 Pauline",
    "opening_hours": "Mo 14:00-19:30; Tu-Sa 10:00-14:00,15:30-19:30",
    "opening_hours:covid19": "Tu-Fr 14:30-18:00; Sa 10:00-14:00",
    "organic": "only",
    "shop": "convenience",
    "website": "http://lepicerie2pauline.fr/"
  }
},
{
  "type": "node",
  "id": 2491301873,
  "lat": 44.8525393,
  "lon": -0.5731868,
  "tags": {
    "addr:housenumber": "14",
    "bulk_purchase": "only",
    "description": "Produits vrac et bio, producteurs locaux",
    "name": "Maison Hegara",
    "opening_hours": "Tu-Sa 09:30-13:30,15:30-19:30",
    "organic": "yes",
    "shop": "convenience",
    "source": "Communauté Urbaine de Bordeaux - 09/2013",
    "website": "http://www.maisonhegara.com/"
  }
},
{
  "type": "node",
  "id": 2504104917,
  "lat": 45.8299523,
  "lon": 1.2556377,
  "tags": {
    "addr:city": "Limoges",
    "addr:housenumber": "15",
    "addr:postcode": "87000",
    "addr:street": "Rue Othon Péconnet",
    "bulk_purchase": "only",
    "change:XLT-PELU": "yes",
    "contact:phone": "+335 55 33 58 97",
    "contact:website": "http://daybyday-shop.com/magasin/limoges",
    "currency:XLT": "PELU",
    "name": "Day by Day",
    "opening_hours": "Tu-Sa 09:30-13:00,14:30-19:30",
    "operator": "Day by Day",
    "organic": "yes",
    "payment:cash:XLT-PELU": "yes",
    "phone": "+33555335897",
    "shop": "convenience",
    "website": "http://daybyday-shop.com/magasin/limoges"
  }
},
{
  "type": "node",
  "id": 2731965896,
  "lat": 45.5260970,
  "lon": 4.8758095,
  "tags": {
    "addr:city": "Vienne",
    "addr:housenumber": "74",
    "addr:postcode": "38200",
    "addr:street": "Rue Marchande",
    "bulk_purchase": "only",
    "facebook": "https://www.facebook.com/pg/RaphaelGDL",
    "name": "Graine de Lin",
    "organic": "yes",
    "shop": "convenience"
  }
},
{
  "type": "node",
  "id": 2784826773,
  "lat": 45.9205035,
  "lon": 4.5862698,
  "tags": {
    "addr:housenumber": "81",
    "addr:street": "Place Bernigal Guillermin",
    "bulk_purchase": "only",
    "contact:facebook": "https://www.facebook.com/Epicerie-des-Colibris-736920253137779/",
    "name": "L'épicerie des Colibris",
    "organic": "only",
    "shop": "convenience",
    "website": "http://epicerie-colibris.fr/"
  }
},
{
  "type": "node",
  "id": 2814029480,
  "lat": 45.7685054,
  "lon": 4.8462504,
  "tags": {
    "bulk_purchase": "only",
    "contact:phone": "+33 4 72 74 07 25",
    "currency:XLT": "GONT",
    "description": "Épicerie local, 100%bio, vrac.",
    "name": "Mamie Marie",
    "opening_hours": "Mo 14:00-19:30, Tu-Fr 09:30-19:30, Sa 10:00-19:30",
    "opening_hours:covid19": "open",
    "organic": "only",
    "payment:cash:XLT-GONT": "yes",
    "ref:FR:SIRET": "82421020700018",
    "shop": "convenience",
    "source": "Grand Lyon - 10/2011;local_knowledge",
    "website": "https://mamiemarie.com"
  }
},
{
  "type": "node",
  "id": 2947278395,
  "lat": 45.1889418,
  "lon": 5.7290004,
  "tags": {
    "addr:city": "Grenoble",
    "addr:housenumber": "2",
    "addr:postcode": "38000",
    "addr:street": "Rue Condillac",
    "bulk_purchase": "only",
    "currency:EUR": "yes",
    "currency:XLT": "yes",
    "name": "La Bonne Pioche",
    "opening_hours": "10:00-20:00",
    "opening_hours:covid19": "Mo-Fr 09:00-18:00; Sa 09:00-15:00",
    "operator": "SCOP La Bonne Pioche",
    "payment:cash:XLT-CARN": "yes",
    "shop": "convenience",
    "source": "survey",
    "website": "https://www.labonnepiochegrenoble.com",
    "wheelchair": "no"
  }
},
{
  "type": "node",
  "id": 3181284286,
  "lat": 48.8477752,
  "lon": 2.3188691,
  "tags": {
    "addr:city": "Paris",
    "addr:housenumber": "70",
    "addr:postcode": "75007",
    "addr:street": "Rue de Sèvres",
    "bulk_purchase": "only",
    "dog": "no",
    "email": "daybyday.paris.sevres@gmail.com",
    "name": "Day by Day",
    "opening_hours": "Tu-Fr 10:00-13:30, 15:30-19:30; Sa 10:00-19:30; Su 10:00-13:00",
    "opening_hours:covid19": "Tu-Sa 09:30-13:00",
    "operator": "Day by Day",
    "organic": "yes",
    "phone": "+33 140242742",
    "shop": "convenience",
    "website": "http://daybyday-shop.com/magasin/paris-7"
  }
},
{
  "type": "node",
  "id": 3255766433,
  "lat": 50.8738227,
  "lon": 4.7134375,
  "tags": {
    "addr:housenumber": "259",
    "addr:street": "Tiensestraat",
    "bulk_purchase": "only",
    "description": "shop that focuses on using as little packaging as possible",
    "name": "Content",
    "opening_hours": "Mo-Fr 10:00-20:00; Sa 10:00-17:00; PH off",
    "shop": "convenience",
    "website": "https://contentleuven.weebly.com/"
  }
},
{
  "type": "node",
  "id": 3287410833,
  "lat": 48.8415349,
  "lon": 2.3028845,
  "tags": {
    "addr:city": "Paris",
    "addr:housenumber": "1",
    "addr:postcode": "75015",
    "addr:street": "Rue du Général Beuret",
    "bulk_purchase": "only",
    "dog": "no",
    "name": "Day by Day",
    "opening_hours": "Tu-Fr 10:00-14:00, 15:30-19:30; Sa 10:00-19:30; Su 10:00-13:00",
    "opening_hours:covid19": "Tu-Fr 10:00-14:00, 15:30-19:30; Sa 10:00-19:30; Su 10:00-13:00",
    "organic": "yes",
    "phone": "+33981326951",
    "shop": "convenience",
    "website": "http://daybyday-shop.com/magasin/paris-15e"
  }
},
{
  "type": "node",
  "id": 3353574603,
  "lat": 47.4404095,
  "lon": -1.4978503,
  "tags": {
    "addr:city": "Nort-sur-Erdre",
    "addr:housenumber": "9",
    "addr:postcode": "44390",
    "addr:street": "Rue des Mariniers",
    "bulk_purchase": "only",
    "contact:email": "doseepicerie@gmail.com",
    "contact:facebook": "https://www.facebook.com/Doseepiceriesansemballagenortsurerdre/",
    "description": "Boutique sans emballage. Produits alimentaires (farine,céréales,pâtes...), produits du quotidien (lessive…)",
    "description:covid19": "Service des produits assuré par l'équipe. Commande possible par mail ou par téléphone",
    "name": "Dose - Epicerie sans emballage",
    "office": "accountant",
    "opening_hours": "Tu 10:00-13:30,15:00-19:00; We,Th,Sa 10:00-13:00,15:00-19:00; Fr 10:00-13:30, 15:00-19:30",
    "opening_hours:covid19": "Tu-Sa 10:00-12:30",
    "organic": "only",
    "phone": "+33 2 40 14 03 53",
    "shop": "convenience",
    "source": "Association Mieux trier à Nantes, 08/2018"
  }
},
{
  "type": "node",
  "id": 3448218023,
  "lat": 47.2219891,
  "lon": -1.5596057,
  "tags": {
    "addr:housenumber": "2",
    "addr:street": "Rue Yves Bodiguel",
    "bulk_purchase": "only",
    "contact:facebook": "https://www.facebook.com/lesjolisbocaux/",
    "description:covid19": "Votre épicerie est fermée jusqu'à nouvel ordre ! Nous avons mis en place un système de drive. Passez vos commandes par mail à contact@lesjolisbocaux.com La liste des produits disponibles est à votre disposition sur simple demande ou sur Facebook !",
    "mapillary": "aiv5HO7zVGdagqujgtGCTg",
    "name": "Les Jolis Bocaux",
    "opening_hours": "Mo-Sa 10:00-19:00; Su 10:00-13:00",
    "opening_hours:covid19": "off",
    "organic": "yes",
    "shop": "convenience",
    "source:bulk_purchase": "Collectif J'aime tes bocaux",
    "takeaway:covid19": "only",
    "website": "https://lesjolisbocaux.com/"
  }
},
{
  "type": "node",
  "id": 3517496239,
  "lat": 51.0570573,
  "lon": 3.7306790,
  "tags": {
    "addr:housenumber": "68",
    "addr:street": "Steendam",
    "bulk_purchase": "only",
    "name": "Ohne Natuurlijk Onverpakt",
    "opening_hours": "closed",
    "shop": "supermarket",
    "website": "https://www.ohne.be/"
  }
},
{
  "type": "node",
  "id": 3770283182,
  "lat": 43.2992195,
  "lon": 5.3844977,
  "tags": {
    "amenity": "restaurant",
    "bulk_purchase": "only",
    "name": "Le Bar à Vrac",
    "organic": "yes",
    "shop": "convenience",
    "website": "http://baravrac.com/"
  }
},
{
  "type": "node",
  "id": 3885946782,
  "lat": 50.8257250,
  "lon": 4.3449171,
  "tags": {
    "addr:city": "Saint-Gilles - Sint-Gillis",
    "addr:housenumber": "29",
    "addr:postcode": "1060",
    "addr:street": "Avenue Paul Dejaer - Paul Dejaerlaan",
    "bulk_purchase": "only",
    "change:XLT-ZINN": "yes",
    "currency:XLT": "ZINN",
    "name": "day by day Bruxelles",
    "opening_hours": "Tu-Sa 11:00-18:30",
    "organic": "yes",
    "payment:cash:XLT-ZINN": "yes",
    "phone": "+32 2 851 24 20",
    "second_hand": "yes",
    "shop": "convenience",
    "website": "http://daybyday-shop.com/magasin/bruxelles"
  }
},
{
  "type": "node",
  "id": 4037785465,
  "lat": 48.1070402,
  "lon": -1.6712595,
  "tags": {
    "addr:city": "Rennes",
    "addr:housenumber": "30",
    "addr:postcode": "35000",
    "addr:street": "Rue Saint-Hélier",
    "bulk_purchase": "only",
    "contact:email": "daybyday.rennes@gmail.com",
    "contact:facebook": "day by day",
    "name": "Day by day",
    "opening_hours": "Mo 12:00-19:00; Tu-Sa 10:00-13:30,14:30-19:00",
    "opening_hours:covid19": "same",
    "organic": "yes",
    "payment:cash": "yes",
    "phone": "+33 9 67 55 09 15",
    "shop": "convenience",
    "website": "http://daybyday-shop.com/magasin/rennes"
  }
},
{
  "type": "node",
  "id": 4076469242,
  "lat": 43.6208395,
  "lon": 6.9731269,
  "tags": {
    "bulk_purchase": "only",
    "contact:email": "contact@boomerang.bio",
    "contact:facebook": "https://www.facebook.com/epicerieboomerang/",
    "contact:phone": "+33 4 93 12 10 22",
    "description:covid19": "Sur commande seulement.",
    "email": "contact@boomerang.bio",
    "name": "Boomerang",
    "opening_hours": "Tu-Sa 9:00-13:00,15:00-19:00",
    "opening_hours:covid19": "same",
    "organic": "yes",
    "phone": "+33 4 93 12 10 22",
    "shop": "convenience",
    "website": "http://www.boomerang.bio/"
  }
},
{
  "type": "node",
  "id": 4188222791,
  "lat": 46.2098555,
  "lon": 6.1398150,
  "tags": {
    "addr:city": "Genève",
    "addr:housenumber": "1",
    "addr:postcode": "1201",
    "addr:street": "Place des Grottes",
    "bulk_purchase": "only",
    "name": "Nature en vrac Epicerie fine",
    "phone": "+41 22 525 67 70",
    "shop": "convenience"
  }
},
{
  "type": "node",
  "id": 4225570764,
  "lat": 47.6512788,
  "lon": -2.0856892,
  "tags": {
    "addr:city": "Redon",
    "addr:housenumber": "12",
    "addr:postcode": "35600",
    "addr:street": "Rue des États",
    "bulk_purchase": "only",
    "contact:facebook": "https://www.facebook.com/culturevrac/",
    "name": "Culture Vrac",
    "opening_hours": "Mo-Sa 09:00-13:30,14:30-19:00; Tu off; We,Th 09:30-13:30,14:30-19:00",
    "opening_hours:covid19": "same",
    "shop": "convenience",
    "website": "https://www.culturevrac.com/",
    "wheelchair": "yes"
  }
},
{
  "type": "node",
  "id": 4232065502,
  "lat": 43.4936669,
  "lon": -1.4808673,
  "tags": {
    "access:covid19": "yes",
    "addr:city": "Bayonne",
    "addr:housenumber": "8",
    "addr:postcode": "64100",
    "addr:street": "Avenue Maréchal Foch",
    "bulk_purchase": "only",
    "contact:facebook": "https://www.facebook.com/Epicerie-vrac-indépendante-La-Mesure-1502631610029216",
    "contact:instagram": "https://www.instagram.com/lamesure.vrac",
    "delivery:covid19": "no",
    "name": "La Mesure",
    "opening_hours:covid19": "Mo-Th,Sa 09:30-13:00; Fr 09:30-18:00",
    "organic": "yes",
    "phone": "+33559646736",
    "shop": "convenience"
  }
},
{
  "type": "node",
  "id": 4285279598,
  "lat": 43.6168577,
  "lon": 1.4372097,
  "tags": {
    "addr:city": "Toulouse",
    "addr:housenumber": "16",
    "addr:postcode": "31200",
    "addr:street": "Avenue des Minimes",
    "bulk_purchase": "only",
    "contact:facebook": "https://www.facebook.com/ceci.et.cela.magasin",
    "email": "bonjour@ceci-et-cela.fr",
    "name": "Ceci & cela",
    "opening_hours": "Mo 14:00-19:30; Tu-Sa 10:00-20:00",
    "opening_hours:covid19": "Mo-Sa 10:00-13:00,14:00-19:00",
    "organic": "yes",
    "payment:cash": "yes",
    "payment:credit_cards": "yes",
    "phone": "+33 5 31 22 57 05",
    "shop": "convenience",
    "website": "https://ceci-et-cela.fr/"
  }
},
{
  "type": "node",
  "id": 4336143153,
  "lat": 44.8169054,
  "lon": 5.7506866,
  "tags": {
    "bulk_purchase": "only",
    "contact:facebook": "https://www.facebook.com/lebocaldutrieves/",
    "name": "Le Bocal du Trièves",
    "opening_hours": "Tu-Fr 09:00-12:30,14:30-19:00; Sa 09:00-18:30",
    "organic": "yes",
    "shop": "convenience",
    "wheelchair": "limited"
  }
},
{
  "type": "node",
  "id": 4485472186,
  "lat": 48.1240322,
  "lon": -1.2094988,
  "tags": {
    "addr:city": "Vitré",
    "addr:housenumber": "1",
    "addr:postcode": "35500",
    "addr:street": "Rue de la Borderie",
    "bulk_purchase": "only",
    "name": "Mamie mesure",
    "opening_hours": "Mo-Fr 10:00-14:00,15:00-19:00; Sa 09:00-19:00",
    "opening_hours:covid19": "Mo-Sa 09:00-14:00",
    "organic": "yes",
    "shop": "convenience",
    "website": "https://mamiemesure.fr/"
  }
},
{
  "type": "node",
  "id": 4512195230,
  "lat": 47.3928378,
  "lon": 0.6810171,
  "tags": {
    "addr:city": "Tours",
    "addr:housenumber": "109",
    "addr:postcode": "37000",
    "addr:street": "Rue des Halles",
    "brand": "day by day",
    "bulk_purchase": "only",
    "contact:phone": "+33 2 36 97 00 02",
    "description": "Alimentation, Cosmétiques et Droguerie en vrac...",
    "name": "Day by day",
    "opening_hours": "Tu-Sa 09:30-13:00,14:30-19:00",
    "organic": "yes",
    "phone": "+33 2 36 97 00 02",
    "shop": "convenience",
    "website": "http://daybyday-shop.com/magasin/tours"
  }
},
{
  "type": "node",
  "id": 4526138028,
  "lat": 48.8900868,
  "lon": 2.1973952,
  "tags": {
    "addr:city": "Nanterre",
    "addr:housenumber": "13",
    "addr:postcode": "92000",
    "addr:street": "Place Gabriel Péri",
    "bulk_purchase": "only",
    "name": "Day by Day",
    "opening_hours": "Tu-Su 09:30-13:30, Tu-Sa 15:30-19:30",
    "opening_hours:covid19": "open",
    "operator": "Day by Day",
    "organic": "yes",
    "phone": "+33953005796",
    "shop": "convenience",
    "source": "survey 2017",
    "website": "http://daybyday-shop.com/magasin/nanterre",
    "wheelchair": "yes"
  }
},
{
  "type": "node",
  "id": 4538398679,
  "lat": 45.1575472,
  "lon": 1.5345609,
  "tags": {
    "addr:city": "Brive-la-Gaillarde",
    "addr:housenumber": "23",
    "addr:postcode": "19100",
    "addr:street": "Rue Gambetta",
    "bulk_purchase": "only",
    "contact:phone": "+33 5 55 22 73 71",
    "name": "Day by Day",
    "opening_hours": "Tu-Sa 09:30-13:00,15:00-19:00",
    "organic": "yes",
    "phone": "+33555227371",
    "shop": "convenience",
    "website": "http://daybyday-shop.com/magasin/brive-la-gaillarde"
  }
},
{
  "type": "node",
  "id": 4587573799,
  "lat": 46.0810983,
  "lon": 7.2136325,
  "tags": {
    "bulk_purchase": "only",
    "name": "Chez Mamie",
    "operator": "Chez Mamie",
    "shop": "supermarket"
  }
},
{
  "type": "node",
  "id": 4591148708,
  "lat": 43.3107029,
  "lon": 5.3872483,
  "tags": {
    "addr:housenumber": "36",
    "addr:street": "Rue Bernard",
    "bulk_purchase": "only",
    "name": "Drogheria Belle de Mai",
    "note": "Épicerie fine produits italiens et bios",
    "organic": "yes",
    "shop": "convenience",
    "website": "https://cantinedumidi.wordpress.com/epicerie/"
  }
},
{
  "type": "node",
  "id": 4620360223,
  "lat": 48.5651195,
  "lon": 7.7596635,
  "tags": {
    "addr:city": "Strasbourg",
    "addr:housenumber": "100",
    "addr:postcode": "67100",
    "addr:street": "Route du Polygone",
    "bulk_purchase": "only",
    "contact:city": "Strasbourg",
    "contact:email": "daybyday.strasbourg@gmail.com",
    "contact:housenumber": "90",
    "contact:phone": "+33 3 88 41 63 35",
    "contact:postcode": "67100",
    "contact:street": "Route du Polygone",
    "contact:website": "http://daybyday-shop.com/magasin/strasbourg",
    "name": "day by day Strasbourg",
    "opening_hours": "Tu-Fr 09:30-13:00, 15:00-19:30; Sa 08:30-13:00, 15:00-18:30",
    "opening_hours:covid19": "open",
    "organic": "yes",
    "ref:FR:SIRET": "81847068400015",
    "shop": "convenience",
    "source": "survey",
    "wheelchair": "no"
  }
},
{
  "type": "node",
  "id": 4655448089,
  "lat": 50.6465915,
  "lon": 5.5758052,
  "tags": {
    "addr:housenumber": "6",
    "addr:street": "Rue du Palais",
    "bulk_purchase": "only",
    "currency:XLT": "VALH",
    "name": "L'entre-pot",
    "name:fr": "L'entre-pot",
    "opening_hours": "Tu 12:30-19:00; We-Sa 10:30-19:00; Su 11:00-17:00",
    "payment:cash": "yes",
    "payment:cash:XLT-VALH": "yes",
    "shop": "supermarket",
    "sorting_name": "Entre-Pot (l')"
  }
},
{
  "type": "node",
  "id": 4685425730,
  "lat": 45.7770652,
  "lon": 3.0852236,
  "tags": {
    "addr:city": "Clermont-Ferrand",
    "addr:housenumber": "14",
    "addr:postcode": "63000",
    "addr:street": "Rue Saint-Genès",
    "bulk_purchase": "only",
    "contact:facebook": "https://www.facebook.com/Elodiededaybydayclermontferrand/",
    "description:fr": "Épicerie en vrac, sans emballage",
    "name": "Day by Day Clermont",
    "opening_hours": "Tu-Sa 09:30-14:00,15:00-19:00",
    "opening_hours:covid19": "Mo 14:30-17:30; Tu-Sa 10:00-13:30,14:30-17:30",
    "organic": "yes",
    "payment:cash:XLT-DUME": "yes",
    "phone": "+33473913534",
    "shop": "convenience",
    "website": "http://daybyday-shop.com/magasin/clermont-ferrand"
  }
},
{
  "type": "node",
  "id": 4688545391,
  "lat": 50.6266853,
  "lon": 3.0477330,
  "tags": {
    "addr:city": "Lille",
    "addr:housenumber": "384",
    "addr:postcode": "59000",
    "addr:street": "Rue Léon Gambetta",
    "bulk_purchase": "only",
    "contact:phone": "+33 3 20 07 62 93",
    "contact:website": "http://daybyday-shop.com/magasin/lille",
    "description": "mon épicerie en vrac",
    "description:covid19": "Possibilité de commander avec retrait en magasin.",
    "name": "day by day Lille",
    "opening_hours": "Tu-Sa 09:30-13:00,15:00-19:30, Su 09:25-13:30",
    "opening_hours:covid19": "Tu-Sa 09:00-15:00",
    "operator": "day by day",
    "organic": "yes",
    "phone": "+33320076293",
    "shop": "convenience",
    "website": "http://daybyday-shop.com/magasin/lille"
  }
},
{
  "type": "node",
  "id": 4688555892,
  "lat": 49.1152481,
  "lon": 6.1785716,
  "tags": {
    "bulk_purchase": "only",
    "contact:phone": "+33 3 72 39 54 22",
    "contact:website": "http://daybyday-shop.com/magasin/metz",
    "description": "Épicerie en vrac sans emballage. Produit alimentaire, vin, cosmétique et droguerie",
    "dog": "no",
    "name": "Day by Day Metz",
    "opening_hours": "Tu-Fr 09:30-13:30,15:00-19:00; Sa 09:30-19:00; Su 09:30-12:00",
    "operator": "Day by Day",
    "organic": "yes",
    "shop": "convenience",
    "website": "http://daybyday-shop.com/magasin/metz"
  }
},
{
  "type": "node",
  "id": 4760427539,
  "lat": 48.7009399,
  "lon": 6.1765016,
  "tags": {
    "addr:housenumber": "37",
    "bulk_purchase": "only",
    "currency:XLT": "FLOR",
    "email": "daybyday.nancy@gmail.com",
    "name": "day by day - Mon épicerie en vrac",
    "opening_hours": "Mo-Sa 09:30-13:00,14:30-19:00",
    "opening_hours:covid19": "Tu-Fr 09:30-13:00,14:30-18:00; Sa 09:30-13:00; Th off",
    "organic": "yes",
    "payment:cash:XLT-FLOR": "yes",
    "phone": "+33 9 86 65 68 45",
    "shop": "convenience",
    "source": "survey",
    "takeaway:covid19": "yes",
    "website": "http://daybyday-shop.com/magasin/nancy"
  }
},
{
  "type": "node",
  "id": 4764121227,
  "lat": 49.1842210,
  "lon": -0.3647099,
  "tags": {
    "bulk_purchase": "only",
    "contact:facebook": "https://www.facebook.com/lamaisonduvrac/",
    "name": "La Maison du Vrac",
    "opening_hours:covid19": "off",
    "organic": "yes",
    "shop": "convenience",
    "source": "cadastre-dgi-fr source : Direction Générale des Impôts - Cadastre. Mise à jour : 2017",
    "start_date": "2017-06"
  }
},
{
  "type": "node",
  "id": 4779678765,
  "lat": 45.6865159,
  "lon": 5.9135264,
  "tags": {
    "bulk_purchase": "only",
    "name": "La Ressource",
    "opening_hours:covid19": "Mo-Sa 09:00-13:00; Su 09:00-12:15",
    "organic": "only",
    "shop": "convenience",
    "website": "http://laressource.fr/"
  }
},
{
  "type": "node",
  "id": 4783664546,
  "lat": 48.3894140,
  "lon": -4.4897255,
  "tags": {
    "addr:city": "Brest",
    "addr:postcode": "29000",
    "addr:street": "Rue de Lyon",
    "bulk_purchase": "only",
    "name": "Day by Day",
    "opening_hours:covid19": "open",
    "organic": "yes",
    "shop": "convenience",
    "website": "http://daybyday-shop.com/magasin/brest"
  }
},
{
  "type": "node",
  "id": 4843398120,
  "lat": 45.4413433,
  "lon": 4.3889514,
  "tags": {
    "bulk_purchase": "only",
    "contact:website": "http://www.vracenvert.fr",
    "description": "Épicerie sans emballage",
    "name": "Vrac en Vert",
    "opening_hours": "Tu-Sa 09:30-19:30; Mo 14:30-19:30",
    "opening_hours:covid19": "open",
    "organic": "only",
    "shop": "convenience"
  }
},
{
  "type": "node",
  "id": 4854111317,
  "lat": 47.3929497,
  "lon": 8.5393080,
  "tags": {
    "addr:city": "Zürich",
    "addr:housenumber": "74",
    "addr:postcode": "8057",
    "addr:street": "Schaffhauserstrasse",
    "bulk_purchase": "only",
    "name": "Chez Mamie",
    "organic": "yes",
    "shop": "greengrocer",
    "website": "https://www.chezmamiebiovrac.com/copie-de-zurich-zh-1"
  }
},
{
  "type": "node",
  "id": 4907687601,
  "lat": 41.9991921,
  "lon": 9.3996292,
  "tags": {
    "bulk_purchase": "only",
    "contact:facebook": "https://www.facebook.com/Sous-Les-Glycines-112656768829426/",
    "name": "Sous Les Glycines",
    "opening_hours": "Th-Su",
    "organic": "only",
    "phone": "+33 4 95 46 87 41",
    "shop": "convenience"
  }
},
{
  "type": "node",
  "id": 4911467953,
  "lat": 43.6408244,
  "lon": 5.0972613,
  "tags": {
    "addr:city": "Salon-de-Provence",
    "addr:housenumber": "49",
    "addr:postcode": "13300",
    "addr:street": "Rue de l'Horloge",
    "bulk_purchase": "only",
    "name": "Autrement Vrac",
    "opening_hours": "Tu-Sa 09:30-12:30,14:30-19:00",
    "organic": "only",
    "shop": "convenience",
    "website": "http://www.autrementvrac.fr/"
  }
},
{
  "type": "node",
  "id": 4920177643,
  "lat": 47.2366397,
  "lon": 6.0283165,
  "tags": {
    "bulk_purchase": "only",
    "contact:housenumber": "90",
    "contact:phone": "+33 3 81 59 95 67",
    "currency:XLT": "PIVE",
    "facebook": "https://www.facebook.com/levracepiceriesansemballage/",
    "name": "Le Vrac",
    "opening_hours": "Mo 14:00-19:00; Tu-Su 09:30-13:00,14:00-19:30",
    "organic": "only",
    "payment:cash:XLT-PIVE": "yes",
    "ref:FR:NAF": "4711B",
    "ref:FR:SIRET": "80468120300027",
    "shop": "convenience"
  }
},
{
  "type": "node",
  "id": 4935316822,
  "lat": 47.9949512,
  "lon": -4.1091252,
  "tags": {
    "addr:housenumber": "6",
    "addr:street": "Place du 118e R.I.",
    "bulk_purchase": "only",
    "contact:facebook": "https://www.facebook.com/LesSemeusesQuimper/",
    "cuisine": "local;french",
    "description": "Épicerie vrac & coffee shop No food covid19",
    "description:covid19": "Les commandes sont à communiquer à la boutique (bon de commande disponible sur sa page Facebook) et à venir récupérer en \"drive\"",
    "email": "lessemeuses.quimper@gmail.com",
    "food": "yes",
    "name": "Les Semeuses",
    "opening_hours:covid19": "Tu-Sa 10:00-18:00",
    "organic": "yes",
    "phone": "+3399877887",
    "shop": "convenience"
  }
},
{
  "type": "node",
  "id": 4941395643,
  "lat": 46.5787429,
  "lon": 0.3203743,
  "tags": {
    "addr:housenumber": "5",
    "addr:street": "Rue Léopold Sedar Senghor",
    "bulk_purchase": "only",
    "contact:facebook": "https://www.facebook.com/leffetbocal/",
    "contact:website": "https://www.leffetbocal.fr/",
    "name": "L’effet bocal",
    "opening_hours": "Tu-Sa 09:30-19:30",
    "opening_hours:covid19": "Tu-Fr 10:00-13:00,15:00-18:00; Sa 10:00-14:00",
    "organic": "yes",
    "shop": "convenience"
  }
},
{
  "type": "node",
  "id": 4956297732,
  "lat": 45.7674103,
  "lon": 4.8377735,
  "tags": {
    "bulk_purchase": "only",
    "contact:facebook": "https://www.facebook.com/bulkolyon/",
    "description": "Magasin éco-responsable de produits en vrac",
    "email": "bulko.lyon@gmail.com",
    "name": "Bulko",
    "opening_hours": "Mo-Sa 10:00-20:00, Su 10:00-14:00",
    "opening_hours:covid19": "Tu-Sa 10:00-18:00",
    "organic": "yes",
    "phone": "+33 6 51 44 58 22",
    "shop": "convenience",
    "website": "http://www.bulko-lyon.com/"
  }
},
{
  "type": "node",
  "id": 4962546028,
  "lat": 49.2761931,
  "lon": -0.6845764,
  "tags": {
    "addr:city": "Saint-Vigor-le-Grand",
    "addr:postcode": "14400",
    "addr:street": "Chemin de la Blêtre",
    "bulk_purchase": "only",
    "description": "Organic food store",
    "name": "Biocoop Olaf",
    "opening_hours": "Mo 14:30-19:00; Tu-Th 09:30-13:00, 14:30-19:00, 09:00-18:00; Fr, Sa 09:30-19:00",
    "opening_hours:covid19": "open",
    "organic": "only",
    "phone": "+33231102704",
    "shop": "convenience",
    "website": "https://www.biocoopolaf.com/"
  }
},
{
  "type": "node",
  "id": 4972539171,
  "lat": 43.5970474,
  "lon": 1.4272468,
  "tags": {
    "access:covid19": "yes",
    "addr:city": "Toulouse",
    "addr:housenumber": "37",
    "addr:postcode": "31300",
    "addr:street": "Avenue Étienne Billières",
    "bulk_purchase": "only",
    "delivery:covid19": "yes",
    "description": "HORAIRES AMÉNAGÉS entre le 29/07/2019 et le 11/08/2019 : Votre épicerie sera ouverte les mardis, mercredis, vendredis de 10 à 12h30 puis de 16h à 19h, fermée le jeudi, horaires habituels les samedis et dimanches CONGÉS ANNUELS du 12 au 26 août 2019 inclus",
    "dog": "no",
    "name": "day by day",
    "opening_hours": "Tu-Sa 10:00-13:00, 15:00-19:00; Su 10:00-13:00",
    "opening_hours:covid19": "Tu,We,Fr,Sa 10:00-13:00,15:00-18:00; Th 10:00-13:00",
    "organic": "yes",
    "phone": "+33 9 83 57 00 31",
    "shop": "convenience",
    "website": "http://daybyday-shop.com/magasin/toulouse"
  }
},
{
  "type": "node",
  "id": 5051303755,
  "lat": 48.8895694,
  "lon": 2.3202326,
  "tags": {
    "access:covid19": "yes",
    "addr:city": "Paris",
    "addr:housenumber": "46",
    "addr:postcode": "75017",
    "addr:street": "Rue des Moines",
    "bulk_purchase": "only",
    "delivery:covid19": "no",
    "description": "Épicerie en vrac",
    "name": "Day by Day Batignolles",
    "opening_hours": "Tu-Fr 09:30-13:00, 15:30-19:30; Sa 09:30-20:00, 09:00-18:00; Su 09:30-13:00",
    "opening_hours:covid19": "Tu,We,Fr,Sa 10:00-18:00",
    "organic": "yes",
    "phone": "+33983255148",
    "shop": "convenience",
    "survey:date": "2018-05-11",
    "takeaway:covid19": "no",
    "website": "http://daybyday-shop.com/magasin/paris-17e"
  }
},
{
  "type": "node",
  "id": 5128753429,
  "lat": 43.3440842,
  "lon": -1.5283751,
  "tags": {
    "bulk_purchase": "only",
    "contact:facebook": "https://www.facebook.com/Euskal-Vrak-837716629677896/",
    "name": "Euskal Vrak",
    "opening_hours": "Mo-Sa 07:00-19:30; We 07:00-13:00; Su 08:00-13:00",
    "organic": "yes",
    "shop": "convenience"
  }
},
{
  "type": "node",
  "id": 5188975157,
  "lat": 45.7793496,
  "lon": 3.0821410,
  "tags": {
    "addr:housenumber": "12",
    "addr:street": "Rue du 11 Novembre",
    "bulk_purchase": "only",
    "name": "La Petite Réserve",
    "opening_hours": "Mo 14:00-19:00, Tu-Sa 10:00-19:00",
    "opening_hours:covid19": "open",
    "organic": "yes",
    "shop": "convenience",
    "start_date": "2017-12-06",
    "website": "http://www.la-petite-reserve.fr/"
  }
},
{
  "type": "node",
  "id": 5206553470,
  "lat": 47.3943683,
  "lon": 0.6782473,
  "tags": {
    "addr:housenumber": "2bis",
    "addr:street": "Place de la Victoire",
    "bulk_purchase": "only",
    "contact:facebook": "https://www.facebook.com/SurLaBrancheTours",
    "email": "contact@zerodechet-tours.fr",
    "name": "Sur la Branche",
    "opening_hours": "Tu-Fr 10:00-13:30,14:30-19:30; Sa 10:00-19:30",
    "opening_hours:covid19": "open",
    "organic": "yes",
    "phone": "+33 6 25 04 22 33",
    "shop": "convenience",
    "website": "https://www.zerodechet-tours.fr"
  }
},
{
  "type": "node",
  "id": 5239347433,
  "lat": 45.8971882,
  "lon": 6.1131652,
  "tags": {
    "addr:housenumber": "5",
    "addr:postcode": "74960",
    "addr:street": "Avenue du Pont Neuf",
    "bulk_purchase": "only",
    "name": "Le local",
    "opening_hours:covid19": "open",
    "organic": "yes",
    "shop": "convenience",
    "website": "http://lelocal-epicerie.fr/"
  }
},
{
  "type": "node",
  "id": 5240172486,
  "lat": 50.6398734,
  "lon": 3.0191437,
  "tags": {
    "addr:city": "Lomme",
    "addr:housenumber": "321",
    "addr:postcode": "59160",
    "addr:street": "Avenue de Dunkerque",
    "bulk_purchase": "only",
    "name": "À Vos Bocaux",
    "opening_hours": "Tu,Fr 09:00-18:00, We 09:00-11:30,14:00-18:30, Th 10:30-18:00, Sa 09:00-19:00",
    "shop": "convenience"
  }
},
{
  "type": "node",
  "id": 5242400683,
  "lat": -21.3408315,
  "lon": 55.4692661,
  "tags": {
    "addr:city": "Saint-Pierre",
    "addr:housenumber": "89",
    "addr:postcode": "97410",
    "addr:street": "Rue du Four à Chaux",
    "bulk_purchase": "only",
    "description": "façade 3, \népicerie végétarienne 100% naturel",
    "name": "Chez mamzel",
    "organic": "yes",
    "shop": "convenience",
    "source": "survey : Projet master 2 RNET Mairie St-Pierre",
    "source_1": "Kaart Ground Survey 2017"
  }
},
{
  "type": "node",
  "id": 5252737243,
  "lat": 46.8032395,
  "lon": 4.4510936,
  "tags": {
    "addr:city": "Le Creusot",
    "addr:housenumber": "187",
    "addr:postcode": "71200",
    "addr:street": "Rue du Maréchal Foch",
    "bulk_purchase": "only",
    "name": "Le Poids Gourmand",
    "shop": "convenience"
  }
},
{
  "type": "node",
  "id": 5273377518,
  "lat": 50.6529934,
  "lon": 4.5664745,
  "tags": {
    "addr:housenumber": "7B",
    "addr:street": "Avenue des Métallurgistes",
    "bulk_purchase": "only",
    "fair_trade": "only",
    "name": "Green Peas",
    "opening_hours": "Tu-Sa 10:00-18:30",
    "organic": "only",
    "phone": "+32 10 61 71 18",
    "shop": "convenience"
  }
},
{
  "type": "node",
  "id": 5277827989,
  "lat": 47.2167671,
  "lon": -1.5592915,
  "tags": {
    "bulk_purchase": "only",
    "contact:city": "Nantes",
    "contact:email": "daybyday.nantes2@gmail.com",
    "contact:facebook": "https://www.facebook.com/louisedaybydaynantes/",
    "contact:housenumber": "3",
    "contact:phone": "+33 9 73 15 80 74",
    "contact:postcode": "44000",
    "contact:street": "Rue Pierre Chéreau",
    "contact:website": "http://daybyday-shop.com/magasin/nantes",
    "description:covid19": "Pour la préparation des commandes voir Facebook - L'épicerie sera fermée la semaine du 13 au 19 avril ( après le week end de Pâques )",
    "name": "Épicerie Day by Day",
    "opening_hours": "Tu-Sa 10:30-13:00,15:00-19:00",
    "opening_hours:covid19": "Tu-Fr 10:00-15:00; Sa 10:00-14:00,15:00-18:00",
    "organic": "yes",
    "shop": "convenience",
    "source:bulk_purchase": "Collectif J'aime tes bocaux"
  }
},
{
  "type": "node",
  "id": 5280165130,
  "lat": 47.9078956,
  "lon": 1.9017350,
  "tags": {
    "addr:city": "Orléans",
    "addr:housenumber": "8",
    "addr:postcode": "45000",
    "addr:street": "Place Gambetta",
    "bulk_purchase": "only",
    "contact:facebook": "https://www.facebook.com/lecobocal",
    "delivery:covid19": "yes",
    "name": "L'Eco Bocal",
    "note:covid19": "> Livraison à J+1 ou J+2",
    "opening_hours": "Ma-Fr 09:00-14:00,15:00-19:30; Sa 09:00-19:00",
    "organic": "only",
    "phone": "+33 9 87 34 98 49",
    "shop": "convenience",
    "website": "https://www.lecobocal.fr/",
    "website:covid19": "https://www.facebook.com/lecobocal/",
    "wheelchair": "yes"
  }
},
{
  "type": "node",
  "id": 5281631586,
  "lat": 43.6766895,
  "lon": 4.6256104,
  "tags": {
    "addr:city": "Arles",
    "addr:housenumber": "23bis",
    "addr:postcode": "13200",
    "addr:street": "Rue de la République",
    "bulk_purchase": "only",
    "change:XLT-ROUE": "yes",
    "contact:facebook": "https://www.facebook.com/bocalandco",
    "currency:EUR": "yes",
    "currency:XLT": "ROUE",
    "drinking_water:refill": "yes",
    "drinking_water:refill:network": "Zero-Bouteilles-Plastiques",
    "name": "Bocal & Co",
    "opening_hours": "Tu-Sa 10:00-14:00,15:00-18:30",
    "opening_hours:covid19": "open",
    "organic": "only",
    "payment:cash:XLT-ROUE": "yes",
    "shop": "convenience",
    "website": "https://bocalandco.fr/",
    "wikimedia_commons": "File:Bocal_et_Compagnie_Arles_France.jpg"
  }
},
{
  "type": "node",
  "id": 5285813874,
  "lat": 50.4776381,
  "lon": 4.8836777,
  "tags": {
    "addr:city": "Bouge",
    "addr:housenumber": "27",
    "addr:street": "Rue Saint-Luc",
    "brand": "Biocap",
    "bulk_purchase": "only",
    "name": "Biocap Bouge",
    "opening_hours": "Mo 11:00-18:30; Tu-Sa 09:00-18:30; Fr 09:00-19:00",
    "organic": "only",
    "phone": "+32 81 20 13 48",
    "shop": "supermarket",
    "website": "http://www.biocap.eu/biocap-bouge/"
  }
},
{
  "type": "node",
  "id": 5337212315,
  "lat": 46.5211279,
  "lon": 6.6179674,
  "tags": {
    "addr:housenumber": "56",
    "addr:street": "Avenue de Tivoli",
    "bulk_purchase": "only",
    "fair_trade": "yes",
    "name": "Chez Mamie",
    "opening_hours": "Mo-Fr 10:00-13:00, 14:00-19:00; Sa 10:00-17:00",
    "organic": "yes",
    "phone": "+41 21 661 40 00",
    "shop": "convenience",
    "website": "https://chezmamie-biovrac.ch/"
  }
},
{
  "type": "node",
  "id": 5354638099,
  "lat": 43.5907122,
  "lon": 1.4451602,
  "tags": {
    "addr:city": "Toulouse",
    "addr:housenumber": "143",
    "addr:postcode": "31400",
    "addr:street": "Grande Rue Saint-Michel",
    "bulk_purchase": "only",
    "contact:facebook": "https://www.facebook.com/olocalbio.toulouse/",
    "description": "Épicerie bio vrac",
    "name": "Ô Local Bio",
    "opening_hours": "Mo 14:00-20:00; Tu-Sa 10:00-20:00",
    "opening_hours:covid19": "open",
    "organic": "only",
    "shop": "convenience",
    "website": "https://www.olocalbio.com/"
  }
},
{
  "type": "node",
  "id": 5407834233,
  "lat": 43.2987534,
  "lon": 5.3982952,
  "tags": {
    "addr:city": "Marseille",
    "addr:housenumber": "5",
    "addr:postcode": "13004",
    "addr:street": "Rue Granoux",
    "brand": "day by day",
    "bulk_purchase": "only",
    "contact:email": "daybyday.marseille@gmail.com",
    "contact:phone": "+33 4 91 78 21 66",
    "dog": "no",
    "name": "day by day Marseille",
    "opening_hours": "Tu-Sa 09:30-13:00, 15:00-19:00",
    "organic": "yes",
    "shop": "convenience",
    "website": "http://daybyday-shop.com/magasin/marseille"
  }
},
{
  "type": "node",
  "id": 5414276240,
  "lat": 47.1037065,
  "lon": -1.2322024,
  "tags": {
    "addr:city": "Sèvremoine",
    "addr:housenumber": "14 bis",
    "addr:postcode": "49230",
    "addr:street": "Le Parveau",
    "bulk_purchase": "only",
    "contact:email": "casavrac@gmail.com",
    "description": "Boutique de vente en ligne et sur place de produits vrac avec ivraison ou retrait en boutique",
    "disused:shop": "convenience",
    "name": "CasaVrac",
    "opening_hours:url": "https://www.casavrac.com/horaires",
    "organic": "yes",
    "website": "https://www.casavrac.com/"
  }
},
{
  "type": "node",
  "id": 5518695844,
  "lat": 48.7566594,
  "lon": 2.3064484,
  "tags": {
    "addr:city": "Antony",
    "addr:housenumber": "62",
    "addr:postcode": "92160",
    "addr:street": "Avenue Aristide Briand",
    "bulk_purchase": "only",
    "name": "Day by Day",
    "opening_hours": "Tu-Fr 09:30-13:30, 15:30-19:30; Sa 09:30-13:30, 14:30-19:30; Su 10:00-12:45",
    "opening_hours:covid19": "Tu-Sa 09:00-13:30,15:30-19:00; Su 10:00-12:30",
    "organic": "yes",
    "phone": "+33157203929",
    "shop": "convenience",
    "website": "http://daybyday-shop.com/magasin/antony"
  }
},
{
  "type": "node",
  "id": 5555230810,
  "lat": 46.8809475,
  "lon": 7.0330793,
  "tags": {
    "bulk_purchase": "only",
    "contact:facebook": "https://www.facebook.com/epicerievrac/",
    "description": "produit locaux et/ou en vrac/sans emballage",
    "email": "aventivrac@hotmail.com",
    "name": "Aventivrac",
    "opening_hours": "Tu-Fr 09:00-12:00,15:30-18:30; Sa 09:00-13:00",
    "organic": "yes",
    "phone": "+41 78 639 32 43",
    "shop": "convenience",
    "wheelchair": "yes"
  }
},
{
  "type": "node",
  "id": 5564165132,
  "lat": 43.2804925,
  "lon": -0.2683068,
  "tags": {
    "addr:city": "Ousse",
    "addr:housenumber": "4 bis",
    "addr:postcode": "64320",
    "addr:street": "Chemin Cambus",
    "bulk_purchase": "only",
    "description": "Groupe local zéro déchet (Zero waste France), promotion du mode de vie zéro déchet ",
    "email": "contactazd64@gmail.com",
    "name": "Association Avenir Zéro Déchet Pau",
    "office": "association"
  }
},
{
  "type": "node",
  "id": 5586113008,
  "lat": 47.6555052,
  "lon": -2.7580327,
  "tags": {
    "addr:city": "Vannes",
    "addr:housenumber": "5",
    "addr:postcode": "56000",
    "addr:street": "Place du Poids-Public",
    "bulk_purchase": "only",
    "name": "Le Verre Doseur",
    "organic": "yes",
    "shop": "convenience",
    "source:bulk_purchase": "Collectif J'aime tes bocaux",
    "website": "https://leverredoseur.fr/"
  }
},
{
  "type": "node",
  "id": 5586136021,
  "lat": 47.8548888,
  "lon": -3.8504379,
  "tags": {
    "addr:city": "Trégunc",
    "addr:housenumber": "25",
    "addr:postcode": "29910",
    "addr:street": "Rue de Pont-Aven",
    "bulk_purchase": "only",
    "name": "Ty Vrac",
    "opening_hours:covid19": "Tu 10:00-13:00, 14:30-18:00; Fri-Sa 10:00-14:00",
    "organic": "yes",
    "shop": "convenience",
    "source": "http://www.tyvrac.fr/",
    "website": "http://www.tyvrac.fr/"
  }
},
{
  "type": "node",
  "id": 5594452333,
  "lat": 49.6425588,
  "lon": -1.6262971,
  "tags": {
    "addr:city": "Cherbourg",
    "addr:housenumber": "19",
    "addr:postcode": "50100",
    "addr:street": "Rue de la Paix",
    "bulk_purchase": "only",
    "facebook": "https://www.facebook.com/laconsigne.epicerie.durable/",
    "name": "La Consigne",
    "organic": "yes",
    "shop": "convenience"
  }
},
{
  "type": "node",
  "id": 5596686294,
  "lat": 50.3576367,
  "lon": 3.5259910,
  "tags": {
    "addr:city": "Valenciennes",
    "addr:housenumber": "2",
    "addr:postcode": "59300",
    "addr:street": "Rue Delsaux",
    "bulk_purchase": "only",
    "email": "daybyday.valenciennes@gmail.com",
    "name": "day by day Valenciennes",
    "opening_hours": "Tu-Fr 10:00-13:00,15:00-19:00; Sa 09:30-13:00,14:30-19:00",
    "opening_hours:covid19": "open",
    "operator": "Day by Day",
    "organic": "yes",
    "phone": "+33 9 84 52 51 99",
    "shop": "convenience",
    "website": "http://daybyday-shop.com/magasin/valenciennes"
  }
},
{
  "type": "node",
  "id": 5618124489,
  "lat": 43.4589796,
  "lon": -1.5409723,
  "tags": {
    "addr:city": "Biarritz",
    "addr:housenumber": "44",
    "addr:postcode": "64200",
    "addr:street": "Rue Luis Mariano",
    "bulk_purchase": "only",
    "name": "day by day",
    "opening_hours": "Tu-Sa 09:00-13:00,15:30-19:00; Su 10:00-12:30",
    "organic": "yes",
    "phone": "+33559260239",
    "shop": "convenience",
    "website": "http://daybyday-shop.com/magasin/biarritz"
  }
},
{
  "type": "node",
  "id": 5618194552,
  "lat": 43.6090240,
  "lon": 3.8742346,
  "tags": {
    "addr:city": "Montpellier",
    "addr:housenumber": "31",
    "addr:postcode": "34000",
    "addr:street": "Rue Saint-Guilhem",
    "bulk_purchase": "only",
    "dog": "no",
    "name": "day by day",
    "opening_hours": "Tu,We,Fr,Sa 10:00-13:00,14:00-17:30;Th,Su off",
    "opening_hours:covid19": "Tu,We,Fr,Sa 10:00-13:00,14:00-17:30;Th,Su off",
    "organic": "yes",
    "phone": "+33 4 99 65 28 09",
    "shop": "convenience",
    "website": "http://daybyday-shop.com/magasin/montpellier"
  }
},
{
  "type": "node",
  "id": 5618210818,
  "lat": 48.8303916,
  "lon": 2.2447462,
  "tags": {
    "addr:city": "Boulogne-Billancourt",
    "addr:housenumber": "32",
    "addr:postcode": "92100",
    "addr:street": "Rue de Solférino",
    "bulk_purchase": "only",
    "name": "Day by Day",
    "opening_hours": "Tu-Fr 10:00-13:30,15:30-19:30; Sa 10:00-19:00; Su 10:00-13:00",
    "opening_hours:covid19": "Tu,We,Fr,Sa 10:00-13:30,15:00-19:00",
    "organic": "yes",
    "phone": "+33986494996",
    "shop": "convenience",
    "website": "http://daybyday-shop.com/magasin/boulogne-billancourt"
  }
},
{
  "type": "node",
  "id": 5618216050,
  "lat": 48.8223731,
  "lon": 2.4196640,
  "tags": {
    "addr:city": "Charenton-le-Pont",
    "addr:housenumber": "31 bis",
    "addr:postcode": "94220",
    "addr:street": "Avenue du Maréchal de Lattre de Tassigny",
    "bulk_purchase": "only",
    "name": "Day by Day",
    "opening_hours": "Tu-We 10:00-13:00,15:30-19:30; Th 15:00-19:30; Fr-Sa 10:00-13:00,15:30-19:30; Su 10:00-12:45",
    "organic": "yes",
    "phone": "+33148939160",
    "shop": "convenience",
    "website": "http://daybyday-shop.com/magasin/charenton-le-pont"
  }
},
{
  "type": "node",
  "id": 5618224717,
  "lat": 48.8053780,
  "lon": 2.1426481,
  "tags": {
    "addr:city": "Versailles",
    "addr:housenumber": "9",
    "addr:postcode": "78000",
    "addr:street": "Rue de Montreuil",
    "bulk_purchase": "only",
    "name": "day by day",
    "opening_hours": "Tu-Fr 09:30-13:00,15:30-19:30; Sa 09:30-19:30",
    "opening_hours:covid19": "open",
    "organic": "yes",
    "phone": "+33139504196",
    "shop": "convenience",
    "website": "http://daybyday-shop.com/magasin/versailles"
  }
},
{
  "type": "node",
  "id": 5618249615,
  "lat": 47.3223582,
  "lon": 5.0408183,
  "tags": {
    "addr:city": "Dijon",
    "addr:housenumber": "3",
    "addr:postcode": "21000",
    "addr:street": "Place Notre-Dame",
    "bulk_purchase": "only",
    "contact:email": "daybyday.dijon@gmail.com",
    "contact:facebook": "https://www.facebook.com/daybydaydijon/",
    "description:covid19": "Possibilité de commander par e-mail. Voir modalités sur la page Facebook.",
    "name": "day by day",
    "opening_hours": "Tu-Fr 09:30-13:00,15:30-19:00; Th 15:30-19:00; Sa 09:30-19:00",
    "opening_hours:covid19": "Tu-Sa 09:30-13:00,15:00-18:00",
    "organic": "yes",
    "phone": "+33 3 80 30 14 56",
    "shop": "convenience",
    "website": "http://daybyday-shop.com/magasin/dijon"
  }
},
{
  "type": "node",
  "id": 5618256642,
  "lat": 48.2971991,
  "lon": 4.0760324,
  "tags": {
    "addr:city": "Troyes",
    "addr:housenumber": "32",
    "addr:postcode": "10000",
    "addr:street": "Rue Émile Zola",
    "bulk_purchase": "only",
    "name": "Day by Day",
    "opening_hours": "Tu-Fr 09:30-13:30,15:00-19:00; Sa 09:30-19:00",
    "organic": "yes",
    "phone": "+33325425579",
    "shop": "convenience",
    "website": "http://daybyday-shop.com/magasin/troyes"
  }
},
{
  "type": "node",
  "id": 5618257512,
  "lat": 47.9006827,
  "lon": 1.9059444,
  "tags": {
    "addr:city": "Orléans",
    "addr:housenumber": "2",
    "addr:postcode": "45000",
    "addr:street": "Place Louis XI",
    "bulk_purchase": "only",
    "name": "Day by Day",
    "opening_hours": "Tu-Fr 10:00-13:30,15:00-19:00; Sa 10:00-19:00",
    "organic": "yes",
    "phone": "+33238687353",
    "shop": "convenience",
    "website": "http://daybyday-shop.com/magasin/orleans"
  }
},
{
  "type": "node",
  "id": 5654339135,
  "lat": -17.5362182,
  "lon": -149.5600452,
  "tags": {
    "bulk_purchase": "only",
    "name": "ECOVRAC",
    "opening_hours": "Mo-Fr 08:30-15:00,18:00-18:00",
    "opening_hours:covid19": "Mo-Fr 14:00-17:00; Sa 09:00-12:00",
    "organic": "yes",
    "phone": "+689 87 731 367",
    "shop": "convenience",
    "takeaway:covid19": "only",
    "website": "https://www.epicerie-ecovrac.com/"
  }
},
{
  "type": "node",
  "id": 5673332572,
  "lat": 45.2978987,
  "lon": 5.4833244,
  "tags": {
    "bulk_purchase": "only",
    "contact:facebook": "https://www.facebook.com/grainesdepicierestullins/",
    "name": "Graines d'épicières",
    "organic": "yes",
    "shop": "convenience"
  }
},
{
  "type": "node",
  "id": 5674954133,
  "lat": 49.4188151,
  "lon": 0.2315180,
  "tags": {
    "access:covid19": "yes",
    "bulk_purchase": "only",
    "facebook": "https://www.facebook.com/epiceriechezpoulet",
    "name": "Épicerie \"Chez Poulet\"",
    "opening_hours:covid19": "Tu-Fr 14:00-18:00; Sa 10:30-17:00",
    "organic": "yes",
    "shop": "convenience",
    "website": "http://www.chezpoulet.fr/"
  }
},
{
  "type": "node",
  "id": 5677604285,
  "lat": 48.7164466,
  "lon": 2.2471395,
  "tags": {
    "addr:city": "Palaiseau",
    "addr:housenumber": "51",
    "addr:postcode": "91120",
    "addr:street": "Rue de Paris",
    "bulk_purchase": "only",
    "contact:phone": "+33 1 70 26 70 31",
    "delivery:covid19": "only",
    "description": "Épicerie en vrac, apporter ses propres contenants",
    "description:covid19": "Commande et livraison possible via le site web",
    "name": "Vrac Nature",
    "opening_hours": "Mo-We, Fr, Sa 09:30-13:30, 15:00-19:00; Th 15:00-19:00",
    "opening_hours:covid19": "open",
    "organic": "only",
    "shop": "convenience",
    "start_date": "2018-05-21",
    "website": "https://www.vracnature.fr/"
  }
},
{
  "type": "node",
  "id": 5679351692,
  "lat": 45.6509186,
  "lon": 0.1558616,
  "tags": {
    "addr:city": "Angoulême",
    "addr:housenumber": "10",
    "addr:postcode": "16000",
    "addr:street": "Place du Palet",
    "amenity": "coworking_space",
    "bulk_purchase": "only",
    "contact:email": "hello@ladroledepicerie.fr",
    "contact:facebook": "https://www.facebook.com/ladroledepicerie/",
    "contact:phone": "+33 5 16 09 87 21",
    "description:categorie": "Coworking",
    "description:soutien_region": "yes",
    "description:typologie": "épicerie, petite restauration sucrée/salée, atelier des partages, coworking, foodlab",
    "leisure": "hackerspace",
    "name": "La Drôle d’Épicerie",
    "network": "FabLab",
    "opening_hours": "Tu 14:00-19:00; We-Sa 10:00-19:00",
    "opening_hours:covid19": "Tu-Fr 12:00-19:00",
    "operator": "SCIC Les Drôles d'Oiseaux",
    "shop": "convenience"
  }
},
{
  "type": "node",
  "id": 5759900079,
  "lat": 46.9769758,
  "lon": -1.3136313,
  "tags": {
    "bulk_purchase": "only",
    "contact:facebook": "https://www.facebook.com/dvrac85venteenvrac/",
    "delivery:covid19": "yes",
    "description:covid19": "Service de drive et de livraisons possible. Me contacter par mail à dvrac85@gmail.com",
    "name": "D-Vrac",
    "opening_hours:covid19": "Mo-Sa 08:30-13:00",
    "organic": "only",
    "shop": "convenience"
  }
},
{
  "type": "node",
  "id": 5780037753,
  "lat": 42.5645519,
  "lon": 9.4404404,
  "tags": {
    "bulk_purchase": "only",
    "facebook": "https://www.facebook.com/pg/LesSilosdeNinaEpicerieSansEmballage",
    "name": "Les silos de Nina",
    "organic": "only",
    "shop": "convenience"
  }
},
{
  "type": "node",
  "id": 5780037754,
  "lat": 46.2446431,
  "lon": 6.0269167,
  "tags": {
    "bulk_purchase": "only",
    "description:covid19": "voir https://www.facebook.com/Auptitbocal/",
    "name": "Au p'tit bocal",
    "opening_hours": "Tu-Fr 09:30-12:30, 14:00-19:30; Sa 10:00-19:00",
    "opening_hours:covid19": "Tu-Fr 09:00-12:30; Sa 09:30-17:00",
    "organic": "only",
    "shop": "convenience",
    "website": "http://www.auptitbocal.fr"
  }
},
{
  "type": "node",
  "id": 5780077353,
  "lat": 48.4621544,
  "lon": 7.4794956,
  "tags": {
    "bulk_purchase": "only",
    "contact:facebook": "https://www.facebook.com/lespetitsbocaux",
    "name": "Les petits bocaux",
    "organic": "only",
    "shop": "convenience",
    "website": "http://lespetitsbocaux.fr/"
  }
},
{
  "type": "node",
  "id": 5782834680,
  "lat": 46.3656228,
  "lon": 6.5009335,
  "tags": {
    "bulk_purchase": "only",
    "name": "La vie selon Gaïa",
    "opening_hours": "Mo-Sa 08:30-19:00",
    "opening_hours:covid19": "Mo-Sa 08:30-19:00",
    "organic": "only",
    "shop": "convenience",
    "website": "https://www.gaiachablais.com"
  }
},
{
  "type": "node",
  "id": 5782834681,
  "lat": 46.3025143,
  "lon": -0.4877430,
  "tags": {
    "bulk_purchase": "only",
    "facebook": "https://www.facebook.com/mademoisellevracniort/",
    "name": "Mademoiselle vrac Niort",
    "organic": "only",
    "shop": "convenience"
  }
},
{
  "type": "node",
  "id": 5789641623,
  "lat": 44.5094214,
  "lon": 0.1589746,
  "tags": {
    "bulk_purchase": "only",
    "name": "La Source Origin'elles",
    "organic": "only",
    "shop": "convenience",
    "website": "https://www.lasourceoriginelles.fr"
  }
},
{
  "type": "node",
  "id": 5789641624,
  "lat": 43.4703018,
  "lon": -0.9251291,
  "tags": {
    "bulk_purchase": "only",
    "facebook": "https://www.facebook.com/pg/dansmonbocal64/",
    "name": "Dans mon bocal",
    "organic": "only",
    "shop": "convenience"
  }
},
{
  "type": "node",
  "id": 5795723202,
  "lat": 43.6063764,
  "lon": 2.2450441,
  "tags": {
    "addr:housenumber": "10",
    "bulk_purchase": "only",
    "facebook": "https://www.facebook.com/LEpicerie-Co-569065536585028/",
    "name": "L'épicerie & co",
    "organic": "only",
    "shop": "convenience"
  }
},
{
  "type": "node",
  "id": 5795723203,
  "lat": 43.6053568,
  "lon": 3.8778969,
  "tags": {
    "addr:housenumber": "9",
    "addr:street": "Rue Durand",
    "bulk_purchase": "only",
    "name": "Cityzen market",
    "organic": "only",
    "shop": "convenience",
    "website": "http://www.cityzen-market.com/"
  }
},
{
  "type": "node",
  "id": 5795723204,
  "lat": 43.2917334,
  "lon": 5.3591310,
  "tags": {
    "addr:city": "Marseille",
    "addr:housenumber": "3",
    "addr:postcode": "13007",
    "addr:street": "Avenue Pasteur",
    "bulk_purchase": "only",
    "name": "Au grain près",
    "opening_hours:covid19": "open",
    "organic": "only",
    "shop": "convenience",
    "website": "https://www.augrainpres.com"
  }
},
{
  "type": "node",
  "id": 5798520425,
  "lat": 45.7807524,
  "lon": 3.0788718,
  "tags": {
    "bulk_purchase": "only",
    "name": "La fabrique de Marie",
    "opening_hours": "Sa-Mo 14:00-19:00; Tu-Fr 10:00-13:00,14:00-19:00",
    "organic": "yes",
    "shop": "cosmetics",
    "website": "https://www.fabriquemarie.fr/"
  }
},
{
  "type": "node",
  "id": 5801177886,
  "lat": 48.8746987,
  "lon": 2.3868629,
  "tags": {
    "bulk_purchase": "only",
    "facebook": "https://www.facebook.com/ReservoirBio/",
    "name": "Réservoir Bio",
    "opening_hours:covid19": "open",
    "organic": "only",
    "shop": "convenience"
  }
},
{
  "type": "node",
  "id": 5802287981,
  "lat": 48.6874375,
  "lon": 2.3518825,
  "tags": {
    "addr:city": "Savigny-sur-Orge",
    "addr:housenumber": "10",
    "addr:postcode": "91600",
    "addr:street": "Avenue des Écoles",
    "bulk_purchase": "only",
    "name": "Day by Day",
    "opening_hours": "Tu-Sa 09:30-13:00,15:00-19:00",
    "organic": "yes",
    "phone": "+33966830102",
    "shop": "convenience",
    "website": "http://daybyday-shop.com/magasin/savigny"
  }
},
{
  "type": "node",
  "id": 5802287982,
  "lat": 49.8955531,
  "lon": 2.2934143,
  "tags": {
    "bulk_purchase": "only",
    "name": "Day by Day",
    "opening_hours": "Mo-We 10:00-13:00,15:00-19:00; Fr-Sa 10:00-13:00,15:00-19:00",
    "organic": "yes",
    "phone": "+33981605735",
    "shop": "convenience",
    "website": "http://daybyday-shop.com/magasin/amiens"
  }
},
{
  "type": "node",
  "id": 5802287983,
  "lat": 48.4462882,
  "lon": 1.4887695,
  "tags": {
    "addr:housenumber": "25",
    "bulk_purchase": "only",
    "name": "Day by Day",
    "opening_hours": "Tu 10:00-13:00,15:00-18:30; We-Sa 10:00-13:00,15:00-19:00",
    "organic": "yes",
    "phone": "+33237207388",
    "shop": "convenience",
    "website": "http://daybyday-shop.com/magasin/chartres"
  }
},
{
  "type": "node",
  "id": 5802287984,
  "lat": 51.0361239,
  "lon": 2.3770646,
  "tags": {
    "addr:housenumber": "3",
    "addr:postcode": "59240",
    "addr:street": "Rue des Chaudronniers",
    "bulk_purchase": "only",
    "delivery:covid19": "yes",
    "name": "Day by Day",
    "opening_hours": "Tu-Sa 09:30-19:30; Su 09:30-13:30",
    "opening_hours:covid19": "Tu-Sa 09:30-14:00",
    "organic": "yes",
    "phone": "0962699305",
    "shop": "convenience",
    "website": "http://daybyday-shop.com/magasin/dunkerque"
  }
},
{
  "type": "node",
  "id": 5803867066,
  "lat": 44.4184210,
  "lon": 4.8024087,
  "tags": {
    "bulk_purchase": "only",
    "facebook": "https://www.facebook.com/ellepreserveladrome/",
    "name": "La Préserve",
    "opening_hours:covid19": "open",
    "organic": "yes",
    "shop": "convenience"
  }
},
{
  "type": "node",
  "id": 5810803553,
  "lat": 43.7648633,
  "lon": 7.4823362,
  "tags": {
    "bulk_purchase": "only",
    "contact:facebook": "https://www.facebook.com/AuGrammePres06190/",
    "name": "Au Gramme Près",
    "organic": "only",
    "shop": "convenience"
  }
},
{
  "type": "node",
  "id": 5810803554,
  "lat": 44.9928471,
  "lon": -0.4483591,
  "tags": {
    "addr:city": "saint andré de cubzac",
    "addr:housenumber": "7",
    "addr:postcode": "33240",
    "addr:street": "Rue du Commandant Cousteau",
    "bulk_purchase": "only",
    "contact:facebook": "https://www.facebook.com/aucomptoirlocal",
    "delivery:covid19": "yes",
    "description": "Epicerie en vrac de produits locaux ou bio",
    "name": "Au Comptoir Local",
    "opening_hours:covid19": "Tu-Sa 08:00-13:00",
    "organic": "only",
    "shop": "convenience"
  }
},
{
  "type": "node",
  "id": 5810803555,
  "lat": 43.6058002,
  "lon": 3.8759533,
  "tags": {
    "bulk_purchase": "only",
    "contact:facebook": "https://www.facebook.com/achacunsonbocal/",
    "name": "A Chacun son Bocal",
    "opening_hours:covid19": "open",
    "organic": "only",
    "shop": "convenience"
  }
},
{
  "type": "node",
  "id": 5812263843,
  "lat": 50.5397180,
  "lon": 3.0760099,
  "tags": {
    "bulk_purchase": "only",
    "contact:facebook": "https://www.facebook.com/bevrac/",
    "name": "Be Vrac",
    "organic": "only",
    "shop": "convenience"
  }
},
{
  "type": "node",
  "id": 5812263844,
  "lat": 49.4696277,
  "lon": 1.1205340,
  "tags": {
    "addr:city": "Bois-Guillaume",
    "addr:housenumber": "62",
    "addr:postcode": "76230",
    "addr:street": "Route de Darnétal",
    "bulk_purchase": "only",
    "contact:facebook": "https://www.facebook.com/myriamtraverscelinerodrigo/",
    "name": "Chez Mère-Grand, l'Epicerie d'Antan",
    "opening_hours": "Tu-Fr 09:30-13:30, 14:30-19:00; Sa 09:00-18:30",
    "organic": "only",
    "phone": "+33 2 35 66 21 75",
    "shop": "convenience"
  }
},
{
  "type": "node",
  "id": 5812263845,
  "lat": 48.6427698,
  "lon": 1.8286862,
  "tags": {
    "bulk_purchase": "only",
    "contact:facebook": "https://www.facebook.com/Comptoir-du-Vrac-1860619837282992/",
    "name": "Comptoir du Vrac",
    "organic": "only",
    "shop": "convenience",
    "website": "http://www.comptoirduvrac.com/"
  }
},
{
  "type": "node",
  "id": 5814662558,
  "lat": 45.5362993,
  "lon": 2.1466630,
  "tags": {
    "bulk_purchase": "only",
    "facebook": "https://www.facebook.com/pelmel.meymac/",
    "name": "Epicerie PêlMêl",
    "organic": "only",
    "shop": "convenience",
    "website": "https://pelmel-meymac.jimdo.com/"
  }
},
{
  "type": "node",
  "id": 5814662559,
  "lat": 43.8400966,
  "lon": 4.3576661,
  "tags": {
    "addr:housenumber": "16",
    "addr:postcode": "30000",
    "addr:street": "Boulevard Gambetta",
    "bulk_purchase": "only",
    "facebook": "https://www.facebook.com/gardnvrac",
    "name": "Gard'n Vrac",
    "opening_hours": "Tu-Fr 09:00-13:00, 15:00-19:00; Sa 09:00-19:00; Su 09:00-13:00",
    "opening_hours:covid19": "open",
    "organic": "only",
    "phone": "+33 9 87 14 83 70",
    "shop": "convenience",
    "website": "http://www.gardnvrac.fr/"
  }
},
{
  "type": "node",
  "id": 5816324475,
  "lat": 44.7295628,
  "lon": -0.6008938,
  "tags": {
    "addr:city": "Léognan",
    "addr:housenumber": "7",
    "addr:postcode": "33850",
    "addr:street": "Cours du Maréchal Leclerc",
    "bulk_purchase": "only",
    "contact:facebook": "https://www.facebook.com/lavracrie",
    "name": "La Vrac'rie",
    "organic": "only",
    "shop": "convenience",
    "website": "https://www.lavracrie.com/"
  }
},
{
  "type": "node",
  "id": 5816324476,
  "lat": 48.5389077,
  "lon": 2.6589924,
  "tags": {
    "access:covid19": "yes",
    "addr:housenumber": "5",
    "bulk_purchase": "only",
    "contact:facebook": "https://www.facebook.com/LAMESUREQUIVOUSFAUT",
    "delivery:covid19": "no",
    "name": "La Mesure",
    "opening_hours:covid19": "Mo-Su 10:00-22:00",
    "organic": "only",
    "shop": "convenience",
    "takeaway:covid19": "yes",
    "website": "http://www.lamesure-boutiques.fr/"
  }
},
{
  "type": "node",
  "id": 5816324478,
  "lat": 47.9055743,
  "lon": 2.0392238,
  "tags": {
    "bulk_purchase": "only",
    "contact:facebook": "https://www.facebook.com/LAMESUREQUIVOUSFAUT",
    "name": "La Mesure",
    "opening_hours:covid19": "open",
    "organic": "only",
    "shop": "convenience",
    "website": "http://www.lamesure-boutiques.fr/"
  }
},
{
  "type": "node",
  "id": 5816324479,
  "lat": 48.8167018,
  "lon": 7.7885613,
  "tags": {
    "bulk_purchase": "only",
    "contact:facebook": "https://www.facebook.com/lentrepothaguenau",
    "name": "L'entre'pot",
    "organic": "only",
    "shop": "convenience"
  }
},
{
  "type": "node",
  "id": 5816324480,
  "lat": 50.4589242,
  "lon": 2.6139223,
  "tags": {
    "bulk_purchase": "only",
    "contact:facebook": "https://www.facebook.com/lartduvrac",
    "name": "L'art du Vrac",
    "organic": "only",
    "shop": "convenience"
  }
},
{
  "type": "node",
  "id": 5816324481,
  "lat": 43.6074920,
  "lon": 5.7584488,
  "tags": {
    "bulk_purchase": "only",
    "contact:facebook": "https://www.facebook.com/lherbefolle.rians/",
    "name": "L'herbe Folle",
    "organic": "only",
    "shop": "convenience"
  }
},
{
  "type": "node",
  "id": 5816380817,
  "lat": 50.1111503,
  "lon": 1.8381797,
  "tags": {
    "addr:housenumber": "10",
    "bulk_purchase": "only",
    "contact:facebook": "https://www.facebook.com/locavracabbeville",
    "name": "Locavrac",
    "organic": "only",
    "shop": "convenience",
    "website": "http://locavrac-abbeville.fr/"
  }
},
{
  "type": "node",
  "id": 5816380818,
  "lat": 44.5851842,
  "lon": -0.0828997,
  "tags": {
    "bulk_purchase": "only",
    "name": "Le Vrac Gourmand",
    "organic": "only",
    "shop": "convenience"
  }
},
{
  "type": "node",
  "id": 5816380819,
  "lat": 43.9475564,
  "lon": 4.8074263,
  "tags": {
    "bulk_purchase": "only",
    "contact:facebook": "https://www.facebook.com/LePetitPot.Avignon/",
    "name": "Le Petit Pot",
    "opening_hours:covid19": "open",
    "organic": "only",
    "shop": "convenience",
    "source": "survey",
    "survey:date": "2019-07-26"
  }
},
{
  "type": "node",
  "id": 5817771760,
  "lat": 43.8306063,
  "lon": 5.7977845,
  "tags": {
    "addr:city": "Manosque",
    "addr:housenumber": "260",
    "addr:postcode": "04100",
    "addr:street": "Avenue Régis Ryckebusch",
    "bulk_purchase": "only",
    "contact:facebook": "https://www.facebook.com/ograinetamesure/",
    "email": "ograinetamesure@epipop.com",
    "name": "Ô Grain et à Mesure",
    "opening_hours": "Tu-Sa 10:00-19:00",
    "organic": "only",
    "phone": "+33 666277058",
    "shop": "convenience",
    "website": "http://epipop.com"
  }
},
{
  "type": "node",
  "id": 5817771761,
  "lat": 48.8696188,
  "lon": 2.3631444,
  "tags": {
    "addr:housenumber": "30",
    "addr:postcode": "75010",
    "addr:street": "Rue Albert Thomas",
    "amenity": "restaurant",
    "bulk_purchase": "only",
    "contact:facebook": "https://www.facebook.com/opoaparis/",
    "description": "OPOA est à la fois une épicerie bio en vrac & une cantine saine et savoureuse, engagée dans la démarche zéro déchet.",
    "email": "opoa.vrac@gmail.com",
    "name": "Opoa",
    "organic": "only",
    "phone": "+33 788696972",
    "shop": "convenience",
    "website": "https://www.instagram.com/opoa.paris"
  }
},
{
  "type": "node",
  "id": 5817771763,
  "lat": 50.6746381,
  "lon": 3.1837306,
  "tags": {
    "bulk_purchase": "only",
    "contact:facebook": "https://www.facebook.com/ungraindanslebocal.fr/",
    "name": "Un Grain dans le Bocal",
    "organic": "only",
    "shop": "convenience",
    "website": "https://ungraindanslebocal.com"
  }
},
{
  "type": "node",
  "id": 5836945580,
  "lat": 48.4942232,
  "lon": -4.4290920,
  "tags": {
    "addr:housenumber": "6",
    "bulk_purchase": "only",
    "contact:facebook": "https://www.facebook.com/J-PC-Bio-186356802024665/",
    "name": "J-P&C Bio",
    "organic": "only",
    "shop": "convenience",
    "website": "https://jpc.eatbu.com"
  }
},
{
  "type": "node",
  "id": 5836976158,
  "lat": 47.7943451,
  "lon": -3.5828944,
  "tags": {
    "addr:housenumber": "25",
    "bulk_purchase": "only",
    "contact:facebook": "https://www.facebook.com/Triskell-Vrac-et-primeur-491834657883430/",
    "name": "Triskell Vrac et Primeur",
    "opening_hours:covid19": "open",
    "organic": "yes",
    "shop": "convenience"
  }
},
{
  "type": "node",
  "id": 5837120615,
  "lat": 48.2000542,
  "lon": -2.0446225,
  "tags": {
    "addr:housenumber": "22",
    "bulk_purchase": "only",
    "contact:facebook": "https://www.facebook.com/L%C3%AEle-au-vrac-705974589782425/",
    "name": "L'ile au Vrac",
    "organic": "only",
    "shop": "convenience",
    "website": "https://www.lileauvrac.fr/"
  }
},
{
  "type": "node",
  "id": 5863925596,
  "lat": 48.6585351,
  "lon": 6.1852161,
  "tags": {
    "addr:housenumber": "3ter C",
    "bulk_purchase": "only",
    "contact:email": "contact@element-r.fr",
    "contact:phone": "+33 3 83987809",
    "currency:XLT": "FLOR",
    "delivery:covid19": "no",
    "description:covid19": "commande possible sur le site pour retrait en magasin",
    "name": "Elément’r",
    "opening_hours": "Mo 13:00-19:00; Tu-Sa 10:00-19:00",
    "opening_hours:covid19": "Tu-Sa 10:00-16:00",
    "organic": "yes",
    "payment:cash:XLT-FLOR": "yes",
    "shop": "convenience",
    "takeaway:covid19": "yes",
    "website": "www.element-r.fr"
  }
},
{
  "type": "node",
  "id": 5867522816,
  "lat": 47.3351146,
  "lon": 5.0445127,
  "tags": {
    "bulk_purchase": "only",
    "description:covid19": "Retrait des commandes faites en ligne uniquement sauf jeudi et samedi matin.",
    "name": "Au gramme près",
    "opening_hours": "Mo 14:00-19:00; Tu-Sa 10:00-19:00; Th,Fr 10:00-19:30",
    "opening_hours:covid19": "Tu-Fr 17:00-19:00; Th,Sa 09:30-12:00",
    "shop": "convenience",
    "website": "http://augrammepres-dijon.fr/"
  }
},
{
  "type": "node",
  "id": 5870778380,
  "lat": 50.4749242,
  "lon": 3.2436748,
  "tags": {
    "addr:city": "Orchies",
    "addr:postcode": "59310",
    "addr:street": "Rue de l'Église",
    "bulk_purchase": "only",
    "contact:facebook": "https://www.facebook.com/unautremonde59310/",
    "name": "Un Autre Monde",
    "organic": "yes",
    "shop": "convenience"
  }
},
{
  "type": "node",
  "id": 5902521406,
  "lat": 43.7073137,
  "lon": 7.2630408,
  "tags": {
    "addr:city": "Nice",
    "addr:housenumber": "3",
    "addr:postcode": "06000",
    "addr:street": "Rue Vernier",
    "brand": "day by day",
    "bulk_purchase": "only",
    "contact:email": "daybyday.nice@gmail.com",
    "contact:facebook": "https://www.facebook.com/magasindaybyday",
    "description:covid19": "horaires réadaptés régulièrements, se renseigner",
    "dog": "no",
    "name": "Day by Day",
    "opening_hours": "Tu-Sa 09:30-13:00,15:00-19:00",
    "opening_hours:covid19": "same",
    "organic": "yes",
    "phone": "+33483398982",
    "shop": "convenience",
    "website": "http://daybyday-shop.com/magasin/nice"
  }
},
{
  "type": "node",
  "id": 5931016101,
  "lat": 43.4846032,
  "lon": -1.5526432,
  "tags": {
    "addr:city": "Biarritz",
    "addr:housenumber": "26",
    "addr:postcode": "64200",
    "addr:street": "Avenue de la Marne",
    "bulk_purchase": "only",
    "contact:facebook": "https://www.facebook.com/biovrac.fr/",
    "description": "Alimentation bio, Producteurs locaux bio, Produits en vrac bio, Soins Huiles essentielles bio",
    "name": "Biovrac",
    "opening_hours": "Mo-Sa 09:00-13:00 15:30-19:30 Su 09:30-13:00",
    "organic": "only",
    "phone": "+33 559479367",
    "shop": "convenience",
    "website": "http://www.biovrac.fr/"
  }
},
{
  "type": "node",
  "id": 5959789630,
  "lat": 47.0870267,
  "lon": -1.2828517,
  "tags": {
    "addr:city": "Clisson",
    "addr:housenumber": "14",
    "addr:postcode": "44190",
    "addr:street": "Venelle de l'Escarpe",
    "bulk_purchase": "only",
    "name": "CasaVrac",
    "organic": "yes",
    "shop": "convenience",
    "source:bulk_purchase": "Collectif J'aime tes bocaux",
    "website": "https://www.casavrac.fr/"
  }
},
{
  "type": "node",
  "id": 5959809584,
  "lat": 48.8786083,
  "lon": 2.3710589,
  "tags": {
    "addr:city": "Paris",
    "addr:housenumber": "10",
    "addr:postcode": "75019",
    "addr:street": "Rue de Meaux",
    "bulk_purchase": "only",
    "description:covid19": "Uniquement sur précommande. Un bon de commande est à télécharger sur le site Internet",
    "name": "Kilogramme",
    "opening_hours": "Mo -Sa 12:00 - 17:00",
    "opening_hours:covid19": "Tu-Sa 13:00-17:00",
    "organic": "yes",
    "payment:cash": "yes",
    "payment:credit_cards": "yes",
    "shop": "convenience",
    "website": "https://www.panierkilogramme.fr"
  }
},
{
  "type": "node",
  "id": 5959810428,
  "lat": 50.2894926,
  "lon": 2.7784850,
  "tags": {
    "addr:city": "Arras",
    "addr:housenumber": "11",
    "addr:postcode": "62000",
    "addr:street": "Rue Émile Legrelle",
    "bulk_purchase": "only",
    "contact:facebook": "https://www.facebook.com/audetailpresarras/",
    "description:covid19": "Les commandes sont à envoyer par mail auparavant. La boutique fonctionne en \"drive \"",
    "name": "Au détail près",
    "opening_hours:covid19": "open",
    "organic": "yes",
    "shop": "convenience"
  }
},
{
  "type": "node",
  "id": 5968208079,
  "lat": 47.0623504,
  "lon": -0.8777265,
  "tags": {
    "addr:city": "Cholet",
    "addr:housenumber": "87",
    "addr:postcode": "49300",
    "addr:street": "Rue Nationale",
    "bulk_purchase": "only",
    "contact:facebook": "https://www.facebook.com/mmebocaletmrvrac/",
    "name": "Mme Bocal & Mr Vrac",
    "organic": "only",
    "shop": "convenience"
  }
},
{
  "type": "node",
  "id": 5996529255,
  "lat": 48.1298298,
  "lon": -1.6569816,
  "tags": {
    "addr:city": "Rennes",
    "addr:housenumber": "23",
    "addr:postcode": "35700",
    "addr:street": "Rue Guy Ropartz",
    "bulk_purchase": "only",
    "contact:facebook": "https://www.facebook.com/tigrains/",
    "name": "Ti Grains",
    "opening_hours:covid19": "Mo-Fr 09:30-12:30,14:30-17:30; Sa 09:30-12:30",
    "organic": "yes",
    "shop": "convenience",
    "website": "http://www.tigrains.com"
  }
},
{
  "type": "node",
  "id": 5998111334,
  "lat": 43.0948555,
  "lon": -0.0460001,
  "tags": {
    "addr:city": "Lourdes",
    "addr:housenumber": "1",
    "addr:postcode": "65100",
    "addr:street": "Rue de la Halle",
    "bulk_purchase": "only",
    "contact:facebook": "https://www.facebook.com/saintehildegardelourdes/",
    "name": "Epicerie Sainte-Hildegarde",
    "organic": "yes",
    "shop": "convenience"
  }
},
{
  "type": "node",
  "id": 5998137391,
  "lat": 43.6910745,
  "lon": -1.3321220,
  "tags": {
    "addr:city": "Tosse",
    "addr:postcode": "40230",
    "addr:street": "Place de la mairie",
    "bulk_purchase": "only",
    "contact:facebook": "https://www.facebook.com/vracandbioTosse/",
    "name": "Vrac and Bio",
    "organic": "only",
    "shop": "convenience"
  }
},
{
  "type": "node",
  "id": 6002805113,
  "lat": 44.9155102,
  "lon": -0.4193928,
  "tags": {
    "bulk_purchase": "only",
    "contact:facebook": "https://www.facebook.com/lecabasvrac.fr/",
    "name": "Le Cabas Vrac",
    "organic": "yes",
    "shop": "convenience",
    "website": "https://www.cabasvrac.fr"
  }
},
{
  "type": "node",
  "id": 6004675325,
  "lat": 49.7725305,
  "lon": 4.7196447,
  "tags": {
    "access:covid19": "yes",
    "addr:city": "Charleville-Mézières",
    "addr:housenumber": "7",
    "addr:postcode": "08000",
    "addr:street": "Rue Irénée Carré",
    "bulk_purchase": "only",
    "contact:facebook": "https://www.facebook.com/epiceriegram/?__tn__=K-R&eid=ARDyd3jer5jiRpT0BR58YtOT1fYFj3UdcziLDDMDJWiQ4EXxB_a6X4piN6EJw9xkvyadE9L6wmWFhakL&fref=mentions",
    "name": "Épicerie Gram",
    "opening_hours:covid19": "open",
    "organic": "yes",
    "shop": "convenience"
  }
},
{
  "type": "node",
  "id": 6004706427,
  "lat": 49.4125137,
  "lon": 1.1380237,
  "tags": {
    "addr:city": "Le Mesnil-Esnard",
    "addr:housenumber": "7",
    "addr:postcode": "76240",
    "addr:street": "Place du Général de Gaulle",
    "bulk_purchase": "only",
    "name": "Comptoir du vrac",
    "organic": "yes",
    "shop": "convenience"
  }
},
{
  "type": "node",
  "id": 6004706679,
  "lat": 48.8674197,
  "lon": 2.3579979,
  "tags": {
    "addr:city": "Paris",
    "addr:housenumber": "37",
    "addr:postcode": "75003",
    "addr:street": "Rue Notre-Dame de Nazareth",
    "bulk_purchase": "only",
    "level": "0",
    "name": "Negozio Leggero",
    "opening_hours": "Tu-Sa 10:00-20:00",
    "shop": "convenience",
    "toilets": "yes",
    "website": "http://www.negozioleggero.it/fr/",
    "wheelchair": "no"
  }
},
{
  "type": "node",
  "id": 6004722633,
  "lat": 48.8342163,
  "lon": 2.3216338,
  "tags": {
    "addr:city": "Paris",
    "addr:housenumber": "2",
    "addr:postcode": "75014",
    "addr:street": "Place de Moro-Giafferi",
    "bulk_purchase": "only",
    "contact:facebook": "https://www.facebook.com/despotsetduvrac/",
    "name": "Entre Pots",
    "organic": "yes",
    "shop": "convenience",
    "website": "http://entrepots.strikingly.com"
  }
},
{
  "type": "node",
  "id": 6022347674,
  "lat": 45.2841738,
  "lon": 5.8842545,
  "tags": {
    "addr:city": "Crolles",
    "addr:housenumber": "45",
    "addr:postcode": "38920",
    "addr:street": "Rue du 8 Mai 1945",
    "bulk_purchase": "only",
    "contact:facebook": "https://m.facebook.com/mescoursesenvrac",
    "name": "Mes courses en vrac",
    "organic": "yes",
    "shop": "convenience",
    "website": "https://mescoursesenvrac.com/"
  }
},
{
  "type": "node",
  "id": 6022379458,
  "lat": 47.3228246,
  "lon": -1.1638513,
  "tags": {
    "addr:city": "Liré",
    "addr:housenumber": "261",
    "addr:postcode": "49530",
    "addr:street": "Rue Pierre et Marie Curie",
    "bulk_purchase": "only",
    "contact:facebook": "https://www.facebook.com/Au-march%C3%A9-dOr%C3%A9e-1206462062743709/",
    "name": "Au marché d'Orée",
    "shop": "convenience",
    "website": "http://www.aumarchedoree.fr/"
  }
},
{
  "type": "node",
  "id": 6022577610,
  "lat": 47.2416740,
  "lon": 6.0206684,
  "tags": {
    "addr:city": "Besançon",
    "addr:housenumber": "42",
    "addr:postcode": "25000",
    "addr:street": "Rue Battant",
    "bulk_purchase": "only",
    "currency:XLT": "PIVE",
    "delivery:covid19": "yes",
    "description": "Épicerie 100% vrac pour faire vos courses du quotidien, en quantité à la demande et sans emballage superflu.",
    "description:covid19": "Propose livraison à domicile en vélo",
    "email": "daybyday.besancon@gmail.com",
    "facebook": "https://www.facebook.com/daybydaybesancon/",
    "name": "day by day Besançon",
    "opening_hours": "Mo off; Tu-Sa 10:00-13:30,15:00-19:00; Su 10:00-13:00",
    "opening_hours:covid19": "Tu-We 10:00-13:30; Fr 10:00-13:30; Sa 10:00-13:30,15:00-19:00; Su 10:00-13:00",
    "organic": "yes",
    "payment:cash": "yes",
    "payment:cash:XLT-PIVE": "yes",
    "payment:contactless": "yes",
    "payment:mastercard": "yes",
    "payment:visa": "yes",
    "phone": "+33 381621335",
    "shop": "convenience",
    "start_date": "2018-10-23",
    "website": "http://daybyday-shop.com/magasin/besancon",
    "wheelchair": "yes"
  }
},
{
  "type": "node",
  "id": 6025772036,
  "lat": 41.9183664,
  "lon": 8.7386862,
  "tags": {
    "addr:housenumber": "5",
    "addr:postcode": "20000",
    "addr:street": "Rue Bonaparte",
    "bulk_purchase": "only",
    "contact:facebook": "https://www.facebook.com/AnaredaEpicerie/",
    "name": "L'Anareda",
    "opening_hours:covid19": "Mo-Sa 08:00-17:00",
    "organic": "yes",
    "shop": "convenience"
  }
},
{
  "type": "node",
  "id": 6025772037,
  "lat": 48.8485073,
  "lon": 2.3782721,
  "tags": {
    "addr:housenumber": "12",
    "addr:postcode": "75012",
    "addr:street": "Place d'Aligre",
    "bulk_purchase": "only",
    "name": "Vino Sfuso",
    "shop": "alcohol",
    "website": "http://sfuso.fr/"
  }
},
{
  "type": "node",
  "id": 6025772038,
  "lat": 48.8287577,
  "lon": 2.3287270,
  "tags": {
    "addr:housenumber": "41",
    "addr:postcode": "75014",
    "addr:street": "Rue Bézout",
    "bulk_purchase": "only",
    "name": "Vino Sfuso",
    "operator": "Vino Sfuso",
    "shop": "alcohol",
    "website": "http://sfuso.fr"
  }
},
{
  "type": "node",
  "id": 6025809564,
  "lat": 44.1335832,
  "lon": 4.0928964,
  "tags": {
    "addr:city": "Alès",
    "addr:housenumber": "49",
    "addr:postcode": "30100",
    "addr:street": "Avenue Gaston Ribot",
    "bulk_purchase": "only",
    "name": "Canturla",
    "organic": "yes",
    "shop": "convenience",
    "website": "http://www.canturla.fr/"
  }
},
{
  "type": "node",
  "id": 6025864353,
  "lat": 45.3062334,
  "lon": -0.9378361,
  "tags": {
    "addr:housenumber": "68",
    "addr:postcode": "33340",
    "addr:street": "Rue Jean-Jacques Rousseau",
    "bulk_purchase": "only",
    "contact:facebook": "https://www.facebook.com/lamaisondartemis",
    "name": "La Maison d'Artemis",
    "organic": "yes",
    "shop": "convenience",
    "website": "http://maison-artemis.fr"
  }
},
{
  "type": "node",
  "id": 6026797392,
  "lat": 47.2048074,
  "lon": -1.5678523,
  "tags": {
    "bulk_purchase": "only",
    "contact:city": "Nantes",
    "contact:facebook": "https://www.facebook.com/dosedesens/",
    "contact:housenumber": "16",
    "contact:phone": "+33 62967278",
    "contact:postcode": "44200",
    "contact:street": "Mail des Chantiers",
    "description:covid19": "Privilégier les commandes en ligne. Vous pouvez nous envoyer votre commande à l’adresse commande.dosedesens@gmail.com",
    "mapillary": "LWZGtjzyh4T2uL9G3vcFNA",
    "name": "Dose de Sens",
    "opening_hours": "Mo-Fr 10:00-19:00",
    "opening_hours:covid19": "Mo-Fr 10:00-15:00",
    "organic": "only",
    "shop": "convenience",
    "source:bulk_purchase": "Collectif J'aime tes bocaux",
    "website": "https://www.dosedesens.com/"
  }
},
{
  "type": "node",
  "id": 6027251573,
  "lat": 47.4791461,
  "lon": 6.8420383,
  "tags": {
    "addr:city": "Audincourt",
    "addr:housenumber": "13",
    "addr:postcode": "25400",
    "addr:street": "Rue de Seloncourt",
    "bulk_purchase": "only",
    "contact:facebook": "https://www.facebook.com/NaturellementVracEpicerie/",
    "name": "Naturellement Vrac",
    "organic": "only",
    "shop": "convenience"
  }
},
{
  "type": "node",
  "id": 6027255458,
  "lat": 46.5281874,
  "lon": 6.9022390,
  "tags": {
    "addr:city": "Châtel-Saint-Denis",
    "addr:housenumber": "62",
    "addr:postcode": "1618",
    "addr:street": "Grand-Rue",
    "bulk_purchase": "only",
    "name": "Naturellement Vrac",
    "organic": "yes",
    "shop": "convenience",
    "website": "https://www.naturellementvrac.ch/"
  }
},
{
  "type": "node",
  "id": 6027305945,
  "lat": 45.0926307,
  "lon": 1.9377893,
  "tags": {
    "addr:city": "Argentat",
    "addr:postcode": "19400",
    "addr:street": "Place de l'Église",
    "bulk_purchase": "only",
    "contact:facebook": "https://www.facebook.com/lesiloargentat/",
    "name": "Le Silo",
    "opening_hours": "Mo-Fr 09:00-19:00",
    "opening_hours:covid19": "same",
    "shop": "convenience"
  }
},
{
  "type": "node",
  "id": 6027350867,
  "lat": 43.1801855,
  "lon": 5.6955010,
  "tags": {
    "addr:city": "Saint-Cyr-sur-Mer",
    "addr:postcode": "83270",
    "addr:street": "Avenue de la Mer",
    "bulk_purchase": "only",
    "contact:facebook": "https://www.facebook.com/lebricavrac/",
    "name": "Le Bric à Vrac",
    "organic": "only",
    "shop": "convenience"
  }
},
{
  "type": "node",
  "id": 6031790993,
  "lat": 49.1670865,
  "lon": 5.3990184,
  "tags": {
    "addr:city": "Verdun",
    "addr:housenumber": "2",
    "addr:postcode": "55100",
    "addr:street": "Avenue du 30e Corps",
    "bulk_purchase": "only",
    "contact:facebook": "https://www.facebook.com/missvrac/",
    "name": "Miss Vrac",
    "shop": "convenience",
    "website": "https://contactmissvrac.wixsite.com/missvrac"
  }
},
{
  "type": "node",
  "id": 6031800526,
  "lat": 47.8656926,
  "lon": -4.2221614,
  "tags": {
    "addr:city": "Pont-l'Abbé",
    "addr:housenumber": "2",
    "addr:postcode": "29120",
    "addr:street": "Rue Jean le Berre",
    "bulk_purchase": "only",
    "contact:facebook": "https://www.facebook.com/KerVrac/",
    "name": "Ker'Vrac",
    "organic": "yes",
    "shop": "convenience",
    "website": "https://kervrac.fr/"
  }
},
{
  "type": "node",
  "id": 6031825024,
  "lat": 50.3710251,
  "lon": 3.0841473,
  "tags": {
    "addr:city": "Douai",
    "addr:housenumber": "108",
    "addr:postcode": "59500",
    "addr:street": "Rue Saint-Jacques",
    "bulk_purchase": "only",
    "contact:facebook": "https://www.facebook.com/le.pre.d.anchin.epicerie.vrac.douai/",
    "delivery:covid19": "yes",
    "description:covid19": "Possibilité de retrait de commande en dehors de ces horaires. Livraison à domicile",
    "name": "Le pré d'Anchin",
    "opening_hours": "Mo-Sa 10:30-12:00, 15:30-18:30",
    "opening_hours:covid19": "Mo-Sa 10:30-12:00, 15:30-18:30",
    "shop": "convenience",
    "takeaway:covid19": "yes"
  }
},
{
  "type": "node",
  "id": 6042434804,
  "lat": 48.0793870,
  "lon": 7.3619305,
  "tags": {
    "access:covid19": "yes",
    "addr:housenumber": "41",
    "addr:postcode": "68000",
    "addr:street": "Rue Vauban",
    "brand": "Day by Day",
    "bulk_purchase": "only",
    "delivery:covid19": "yes",
    "name": "Day by Day",
    "opening_hours": "Mo 15:00-18:30; Tu-Sa 10:00-13:00,15:00-18:30; Su 14:00-17:30",
    "opening_hours:covid19": "Tu-Sa 09:00-13:00",
    "organic": "yes",
    "phone": "+33368610124",
    "shop": "convenience",
    "website": "http://daybyday-shop.com/magasin/colmar"
  }
},
{
  "type": "node",
  "id": 6057035151,
  "lat": 46.5235422,
  "lon": 6.6306674,
  "tags": {
    "addr:city": "Lausanne",
    "addr:housenumber": "6",
    "addr:postcode": "1004",
    "addr:street": "Rue Pré-du-Marché",
    "air_conditioning": "no",
    "bulk_purchase": "only",
    "description": "Offers food and household articles without packaging in order to reduce plastic waste.",
    "email": "saveursenvrac@gmail.com",
    "name": "Saveur en Vrac",
    "opening_hours": "Tu, Th, Fr 10:00-19:00; We 09:30-19:00; Sa 09:00-17:00",
    "payment:cash": "yes",
    "payment:credit_cards": "yes",
    "payment:maestro": "yes",
    "payment:mastercard": "yes",
    "payment:postfinance_card": "yes",
    "payment:visa": "yes",
    "phone": "+41213518080",
    "shop": "convenience",
    "website": "https://www.saveursenvrac.ch/",
    "wheelchair": "yes"
  }
},
{
  "type": "node",
  "id": 6064729237,
  "lat": 47.2586915,
  "lon": -0.0762092,
  "tags": {
    "addr:city": "Saumur",
    "addr:housenumber": "27",
    "addr:postcode": "49400",
    "addr:street": "Rue Dacier",
    "bulk_purchase": "only",
    "name": "L'Echo des Bocaux",
    "organic": "only",
    "shop": "convenience",
    "website": "https://lecho-des-bocaux.business.site/"
  }
},
{
  "type": "node",
  "id": 6066146325,
  "lat": 48.1763691,
  "lon": -2.7530549,
  "tags": {
    "addr:city": "Loudéac",
    "addr:housenumber": "4",
    "addr:postcode": "22600",
    "addr:street": "Rue Notre-Dame",
    "bulk_purchase": "only",
    "description": "Épicerie sans emballage",
    "description:covid19": "privilégier commandes : Facebook Épiceriedeventeenvracbocalattitude",
    "name": "Bocal Attitude",
    "opening_hours:covid19": "Tu,Th 14:00-18:00;Sa 10:00-14:00",
    "organic": "yes",
    "shop": "convenience"
  }
},
{
  "type": "node",
  "id": 6084615638,
  "lat": 48.4573537,
  "lon": -5.0965935,
  "tags": {
    "addr:place": "Lampaul",
    "addr:postcode": "29242",
    "bulk_purchase": "only",
    "name": "L'île en vrac",
    "opening_hours": "Mo-Sa 09:00-13:00, 15:30-19:00; Su 09:00-13:00",
    "organic": "yes",
    "shop": "convenience"
  }
},
{
  "type": "node",
  "id": 6093834258,
  "lat": 45.9336004,
  "lon": 6.6322894,
  "tags": {
    "addr:city": "Sallanches",
    "addr:housenumber": "143",
    "addr:postcode": "74700",
    "addr:street": "Rue du Mont-Blanc",
    "bulk_purchase": "only",
    "contact:facebook": "https://www.facebook.com/lereperedeszheros/",
    "name": "Le repère des z'héros",
    "opening_hours:covid19": "Tu-Sa 10:00-13:00,15:00-18:00",
    "organic": "yes",
    "shop": "convenience"
  }
},
{
  "type": "node",
  "id": 6093875288,
  "lat": 48.4958438,
  "lon": 7.4673705,
  "tags": {
    "addr:city": "Rosheim",
    "addr:housenumber": "68",
    "addr:postcode": "67560",
    "addr:street": "Rue du Général de Gaulle",
    "bulk_purchase": "only",
    "contact:facebook": "https://www.facebook.com/lacigogne.envrac/",
    "name": "La Cigogne en Vrac",
    "organic": "yes",
    "shop": "convenience",
    "website": "https://lacigogne-envrac.fr/"
  }
},
{
  "type": "node",
  "id": 6113978462,
  "lat": 50.5775255,
  "lon": 2.8531206,
  "tags": {
    "addr:city": "Herlies",
    "addr:housenumber": "18",
    "addr:postcode": "59134",
    "addr:street": "Rue du Bourg",
    "bulk_purchase": "only",
    "contact:facebook": "https://www.facebook.com/Vracmentbien/",
    "name": "Vracment Bien",
    "shop": "convenience"
  }
},
{
  "type": "node",
  "id": 6126311397,
  "lat": 45.7693748,
  "lon": 4.8919313,
  "tags": {
    "bulk_purchase": "only",
    "email": "contact@vracnroll.com",
    "name": "Vrac'n Roll",
    "note": "Adresse : Lot 11",
    "opening_hours": "Mo 13:00-19:00; Tu,Th 17:00-21:00; We,Fr 11:00-19:00",
    "opening_hours:covid19": "Mo 13:00-19:00; Tu,Th 17:00-21:00; We,Fr 11:00-19:00",
    "organic": "only",
    "phone": "+33 7 68 28 52 75",
    "shop": "convenience",
    "source": "survey",
    "website": "https://vracnroll.com/"
  }
},
{
  "type": "node",
  "id": 6133353987,
  "lat": 47.2115790,
  "lon": -1.6515906,
  "tags": {
    "addr:city": "Saint-Herblain",
    "addr:housenumber": "7",
    "addr:postcode": "44800",
    "addr:street": "Rue Pierre Blard",
    "bulk_purchase": "only",
    "contact:facebook": "https://www.facebook.com/lecellierdheleneepicerievrac/",
    "name": "Le Cellier d'Hélène",
    "opening_hours": "Tu-Fr 10:00-14:00, 15:30-19:30; Sa 10:00-19:00",
    "organic": "yes",
    "phone": "+33 675073283",
    "shop": "convenience",
    "source:bulk_purchase": "Collectif J'aime tes bocaux"
  }
},
{
  "type": "node",
  "id": 6133481041,
  "lat": 49.0278963,
  "lon": 1.1504301,
  "tags": {
    "addr:city": "Évreux",
    "addr:housenumber": "15",
    "addr:postcode": "27000",
    "addr:street": "Rue Edouard Feray",
    "bulk_purchase": "only",
    "contact:facebook": "https://www.facebook.com/epicerieonaturel/",
    "name": "L'épicerie O naturel",
    "organic": "only",
    "shop": "convenience"
  }
},
{
  "type": "node",
  "id": 6133515392,
  "lat": 48.5764108,
  "lon": -3.8259451,
  "tags": {
    "addr:city": "Morlaix",
    "addr:housenumber": "27",
    "addr:postcode": "29600",
    "addr:street": "Place Allende",
    "bulk_purchase": "only",
    "contact:facebook": "https://www.facebook.com/lepiceriedesjeannettes/",
    "name": "L'Épicerie des Jeannettes",
    "opening_hours:covid19": "open",
    "organic": "yes",
    "shop": "convenience"
  }
},
{
  "type": "node",
  "id": 6138958398,
  "lat": 44.5589161,
  "lon": 6.0796378,
  "tags": {
    "addr:city": "Gap",
    "addr:housenumber": "9",
    "addr:postcode": "05000",
    "addr:street": "Place Jean Marcellin",
    "brand": "day by day",
    "bulk_purchase": "only",
    "contact:email": "daybyday.gap@gmail.com",
    "name": "day by day",
    "opening_hours": "Mo 14:30-18:30; Tu-Th 09:30-13:00,15:00-19:00; Fr 09:30-13:00,14:30-19:00; Sa 09:00-13:00,14:30-19:00; Su 10:00-12:00,14:00-18:00",
    "organic": "yes",
    "phone": "+33492579897",
    "shop": "convenience",
    "website": "http://daybyday-shop.com/magasin/gap"
  }
},
{
  "type": "node",
  "id": 6138958399,
  "lat": 48.9590924,
  "lon": 2.8802458,
  "tags": {
    "addr:city": "Meaux",
    "addr:housenumber": "20",
    "addr:postcode": "77100",
    "addr:street": "Rue du Grand Cerf",
    "brand": "day by day",
    "bulk_purchase": "only",
    "contact:email": "daybyday.meaux@gmail.com",
    "name": "Day by Day",
    "opening_hours": "We-Sa 10:00-13:30, 15:00-19:30; Su 10:00-12:30; Tu 10:00-13:00, 15:00-19:30",
    "organic": "yes",
    "shop": "convenience",
    "website": "http://daybyday-shop.com/magasin/meaux"
  }
},
{
  "type": "node",
  "id": 6146293619,
  "lat": 47.6469002,
  "lon": 6.9358920,
  "tags": {
    "addr:city": "Bessoncourt",
    "addr:housenumber": "7",
    "addr:postcode": "90160",
    "addr:street": "Rue des Magnolias",
    "bulk_purchase": "only",
    "contact:facebook": "https://www.facebook.com/lemondeenvrac/",
    "name": "Le Monde en Vrac",
    "opening_hours": "Tu-Th 09:30-12:30, 14:30-19:00; Fr 09:30-19:00; Sa 09:00-18:30",
    "organic": "yes",
    "phone": "+33384542331",
    "shop": "convenience",
    "website": "http://lemonde-en-vrac.com"
  }
},
{
  "type": "node",
  "id": 6153153139,
  "lat": 49.4409048,
  "lon": 1.1027172,
  "tags": {
    "addr:city": "Rouen",
    "addr:housenumber": "52",
    "addr:postcode": "76000",
    "addr:street": "Rue Armand Carrel",
    "brand": "Day by Day",
    "bulk_purchase": "only",
    "contact:email": "daybyday.rouen76@gmail.com",
    "contact:phone": "+33 2 35 71 01 94",
    "contact:website": "http://daybyday-shop.com/magasin/rouen",
    "delivery": "no",
    "dog": "no",
    "drive_through": "no",
    "name": "Day by Day",
    "opening_hours": "Tu-Sa 10:00-13:30,15:00-19:00; Su 10:00-13:00",
    "opening_hours:covid19": "open",
    "organic": "yes",
    "payment:cash": "yes",
    "shop": "convenience"
  }
},
{
  "type": "node",
  "id": 6156005176,
  "lat": 50.3679091,
  "lon": 3.0841817,
  "tags": {
    "addr:city": "Douai",
    "addr:housenumber": "5",
    "addr:postcode": "59500",
    "addr:street": "Place Charles de Gaulle",
    "bulk_purchase": "only",
    "contact:email": "leal.vasco@orange.fr",
    "contact:facebook": "https://www.facebook.com/LaMaisonduVrac.EpicerieConfiserieDouai/",
    "description:covid19": "uniquement livraison et drive",
    "name": "La Maison du Vrac",
    "opening_hours:covid19": "open",
    "organic": "yes",
    "shop": "convenience"
  }
},
{
  "type": "node",
  "id": 6156005179,
  "lat": 43.4279387,
  "lon": 3.6062695,
  "tags": {
    "addr:housenumber": "1",
    "addr:postcode": "34140",
    "addr:street": "Rue Sadi Carnot",
    "bulk_purchase": "only",
    "contact:facebook": "https://www.facebook.com/lapetitebalancoire",
    "name": "La Petite Balançoire",
    "organic": "yes",
    "shop": "convenience"
  }
},
{
  "type": "node",
  "id": 6185847876,
  "lat": 47.3674282,
  "lon": 0.7268992,
  "tags": {
    "addr:housenumber": "9bis",
    "addr:street": "Rue de Rochepinard",
    "bulk_purchase": "only",
    "contact:facebook": "https://www.facebook.com/LAMESUREQUIVOUSFAUT/",
    "description": "\"epicerie fine 100% vrac\"",
    "name": "La Mesure",
    "opening_hours": "Tu-Fr 09:30-13:00,15:00-19:00; Sa 09:00-12:30,14:30-18:00; Su 09:00-12:30",
    "phone": "+33 2 34 38 39 34",
    "shop": "convenience",
    "start_date": "2019-01-16",
    "website": "http://www.lamesure-boutiques.fr/"
  }
},
{
  "type": "node",
  "id": 6198136694,
  "lat": 48.1085159,
  "lon": -1.6798262,
  "tags": {
    "addr:city": "Rennes",
    "addr:housenumber": "1bis",
    "addr:postcode": "35000",
    "addr:street": "Rue Poullain Duparc",
    "bulk_purchase": "only",
    "facebook": "https://www.facebook.com/mamiemesure/",
    "name": "Mamie Mesure",
    "opening_hours": "Tu-Fr 10:00-13:30,14:30-19:00; Sa 10:00-19:00",
    "opening_hours:covid19": "Tu-Sa 09:00-18:00",
    "shop": "convenience",
    "website": "https://mamiemesure.fr/"
  }
},
{
  "type": "node",
  "id": 6221075674,
  "lat": 45.6951848,
  "lon": 4.7935316,
  "tags": {
    "addr:housenumber": "103",
    "addr:street": "Avenue Georges Clemenceau",
    "bulk_purchase": "only",
    "contact:facebook": "http://www.facebook.com/ToutpartenVrac",
    "name": "Tout part en vrac",
    "opening_hours:covid19": "open",
    "organic": "yes",
    "shop": "convenience"
  }
},
{
  "type": "node",
  "id": 6238267038,
  "lat": 48.0048597,
  "lon": 0.1942828,
  "tags": {
    "addr:housenumber": "17",
    "addr:street": "Rue Gambetta",
    "bulk_purchase": "only",
    "contact:email": "daybyday.lemans@gmail.com",
    "contact:phone": "+33 9 86 64 81 99",
    "contact:website": "http://daybyday-shop.com/magasin/le-mans",
    "dog": "no",
    "name": "Day by Day",
    "opening_hours": "Tu-Sa 09:45-12:45, 14:30-19:00",
    "operator": "day by day",
    "phone": "+33986648199",
    "shop": "convenience",
    "website": "https://daybyday-shop.com/magasin/le-mans/"
  }
},
{
  "type": "node",
  "id": 6242534202,
  "lat": 44.3847997,
  "lon": 4.9929930,
  "tags": {
    "bulk_purchase": "only",
    "contact:facebook": "https://www.facebook.com/SAS-Hello-Vrac-262915764484373/",
    "name": "Hello Vrac",
    "organic": "yes",
    "shop": "convenience"
  }
},
{
  "type": "node",
  "id": 6251348345,
  "lat": 43.6664791,
  "lon": 1.3644493,
  "tags": {
    "bulk_purchase": "only",
    "contact:facebook": "https://www.facebook.com/ledrivetoutnu/",
    "contact:housenumber": "280",
    "contact:street": "Rue de la Sur",
    "description": "Uniquement par commande sur le site web",
    "description:covid19": "Uniquement par commande sur le site web",
    "drive_through": "only",
    "name": "Le Drive Tout Nu",
    "opening_hours": "We,Fr-Sa 11:00-19:00",
    "opening_hours:covid19": "We-Sa 11:00-19:00",
    "payment:credit_cards": "yes",
    "shop": "convenience",
    "website": "https://ledrivetoutnu.com/"
  }
},
{
  "type": "node",
  "id": 6252292422,
  "lat": 44.8336522,
  "lon": -0.5653672,
  "tags": {
    "addr:city": "Bordeaux",
    "addr:housenumber": "9",
    "addr:postcode": "33000",
    "addr:street": "Rue Camille Sauvageau",
    "bulk_purchase": "only",
    "contact:facebook": "https://www.facebook.com/epicerietista/",
    "name": "Tista",
    "opening_hours:covid19": "open",
    "organic": "yes",
    "shop": "convenience"
  }
},
{
  "type": "node",
  "id": 6271632512,
  "lat": 46.5823032,
  "lon": 1.9875157,
  "tags": {
    "addr:city": "La Châtre",
    "addr:housenumber": "117",
    "addr:postcode": "36400",
    "addr:street": "Rue Nationale",
    "bulk_purchase": "only",
    "contact:facebook": "https://www.facebook.com/onpasseauvrac/",
    "email": "contact@onpasseauvrac.fr",
    "name": "On passe au vrac",
    "opening_hours": "Tu-Sa 09:00-12:30,15:00-19:30",
    "operator": "On passe au vrac",
    "phone": "+33 2 54 30 96 93",
    "shop": "convenience",
    "start_date": "2019-03-26",
    "website": "https://www.onpasseauvrac.fr/",
    "wheelchair": "yes"
  }
},
{
  "type": "node",
  "id": 6278810555,
  "lat": 48.8650087,
  "lon": 2.3740253,
  "tags": {
    "addr:city": "Paris",
    "addr:housenumber": "75",
    "addr:postcode": "75011",
    "addr:street": "Rue Oberkampf",
    "bulk_purchase": "only",
    "description": "The Naked Shop est la première boutique spécialisée en vrac liquide. Nous proposons essentiellement des produits pour l’entretien de la maison et le soin du corps.",
    "name": "The Naked Shop",
    "opening_hours": "Mo-Fr 11:00-20:00; Sa 10:30-20:00",
    "shop": "chemist",
    "website": "http://thenakedshop.fr/"
  }
},
{
  "type": "node",
  "id": 6295320107,
  "lat": 47.8871321,
  "lon": 7.2347210,
  "tags": {
    "addr:city": "Soultz-Haut-Rhin",
    "addr:housenumber": "14",
    "addr:postcode": "68360",
    "addr:street": "Rue des Prés",
    "bulk_purchase": "only",
    "contact:email": "lesbocauxdeclo@gmail.com",
    "contact:phone": "+33 6 49 62 32 66",
    "facebook": "https://www.facebook.com/envracenligneendrive/",
    "name": "Les Bocaux de Clo",
    "opening_hours": "Mo 15:00-19:00; Tu-Fr 10:00-13:00,15:00-19:30; We,Sa 10:00-13:00",
    "parking_space": "yes",
    "shop": "convenience",
    "website": "https://www.lesbocauxdeclo.com/"
  }
},
{
  "type": "node",
  "id": 6325761580,
  "lat": 50.6748850,
  "lon": 3.1479188,
  "tags": {
    "addr:city": "Croix",
    "addr:housenumber": "29",
    "addr:postcode": "59170",
    "addr:street": "Place de la République",
    "bulk_purchase": "only",
    "name": "Day by Day",
    "opening_hours": "Tu-Sa 09:30-13:00,14:30-19:00",
    "organic": "yes",
    "phone": "+33951622823",
    "shop": "convenience",
    "website": "http://daybyday-shop.com/magasin/croix"
  }
},
{
  "type": "node",
  "id": 6325780959,
  "lat": 44.5579202,
  "lon": 4.7493336,
  "tags": {
    "addr:city": "Montélimar",
    "addr:housenumber": "11",
    "addr:postcode": "26200",
    "addr:street": "Rue Raymond Daujat",
    "bulk_purchase": "only",
    "contact:facebook": "https://www.facebook.com/maddievrac/",
    "name": "Maddie, Le Comptoir du Vrac",
    "shop": "convenience"
  }
},
{
  "type": "node",
  "id": 6343351525,
  "lat": 48.9898084,
  "lon": 1.7152452,
  "tags": {
    "addr:housenumber": "32",
    "addr:street": "Rue Chanzy",
    "bulk_purchase": "only",
    "name": "Day by Day",
    "opening_hours": "Tu-Fr 10:00-13:30,15:00-19:30; Sa 09:30-13:30,15:00-19:30",
    "opening_hours:covid19": "Tu-Sa 09:30-13:30,15:00-18:00",
    "organic": "yes",
    "phone": "+33134977987",
    "shop": "convenience",
    "website": "http://daybyday-shop.com/magasin/mantes-la-jolie"
  }
},
{
  "type": "node",
  "id": 6346628132,
  "lat": 44.8739800,
  "lon": -0.6788204,
  "tags": {
    "addr:city": "Le Haillan",
    "addr:housenumber": "196",
    "addr:postcode": "33185",
    "addr:street": "Avenue Pasteur",
    "bulk_purchase": "only",
    "contact:facebook": "https://www.facebook.com/terredevrac",
    "name": "Terre de Vrac",
    "opening_hours:covid19": "off",
    "organic": "yes",
    "shop": "convenience"
  }
},
{
  "type": "node",
  "id": 6368816251,
  "lat": 43.5576770,
  "lon": 7.0224017,
  "tags": {
    "addr:city": "Cannes",
    "addr:housenumber": "66",
    "addr:postcode": "06400",
    "addr:street": "Boulevard de la République",
    "bulk_purchase": "only",
    "contact:facebook": "https://www.facebook.com/Le-Panier-Vrac-%C3%A9picerie-z%C3%A9ro-d%C3%A9chet-224632348148786/",
    "name": "Le Panier Vrac",
    "organic": "yes",
    "shop": "convenience"
  }
},
{
  "type": "node",
  "id": 6368816253,
  "lat": 44.7947122,
  "lon": 6.5589712,
  "tags": {
    "bulk_purchase": "only",
    "name": "La Gousse d'Ail",
    "organic": "yes",
    "shop": "convenience"
  }
},
{
  "type": "node",
  "id": 6375358706,
  "lat": 44.0335620,
  "lon": 4.9958906,
  "tags": {
    "addr:city": "Monteux",
    "addr:postcode": "84170",
    "addr:street": "Boulevard Trewey",
    "bulk_purchase": "only",
    "contact:facebook": "https://www.facebook.com/larouteduvrac/",
    "name": "La Route du Vrac",
    "organic": "only",
    "shop": "convenience"
  }
},
{
  "type": "node",
  "id": 6387966353,
  "lat": 43.6333585,
  "lon": 3.8955317,
  "tags": {
    "addr:housenumber": "1",
    "addr:street": "Avenue Jean Jaurès",
    "bulk_purchase": "only",
    "contact:facebook": "https://www.facebook.com/LArtDesChoix34170/",
    "name": "L'art des Choix",
    "organic": "yes",
    "shop": "convenience"
  }
},
{
  "type": "node",
  "id": 6387966354,
  "lat": 43.3434056,
  "lon": 3.2122772,
  "tags": {
    "addr:housenumber": "11",
    "addr:street": "Rue Paul Riquet",
    "bulk_purchase": "only",
    "contact:facebook": "https://www.facebook.com/myvrac/",
    "name": "M'Y Vrac",
    "organic": "yes",
    "shop": "convenience"
  }
},
{
  "type": "node",
  "id": 6397769287,
  "lat": 46.1248372,
  "lon": 3.4219612,
  "tags": {
    "addr:city": "Vichy",
    "addr:country": "FR",
    "addr:housenumber": "8",
    "addr:postcode": "03200",
    "addr:street": "Rue Burnol",
    "bulk_purchase": "only",
    "contact:facebook": "https://www.facebook.com/lingredient03/",
    "name": "L'Ingrédient",
    "opening_hours": "Tu-Sa 10:00-19:00",
    "organic": "yes",
    "payment:cash": "yes",
    "payment:contactless": "yes",
    "payment:maestro": "yes",
    "payment:mastercard": "yes",
    "payment:v_pay": "yes",
    "payment:visa": "yes",
    "payment:visa_debit": "yes",
    "payment:visa_electron": "yes",
    "shop": "convenience",
    "survey:date": "2019-12-07"
  }
},
{
  "type": "node",
  "id": 6399989716,
  "lat": 44.5958143,
  "lon": 4.3797472,
  "tags": {
    "addr:housenumber": "1075",
    "addr:street": "Route d'Alès",
    "bulk_purchase": "only",
    "contact:facebook": "https://www.facebook.com/Louvrac/",
    "name": "Lou'Vrac",
    "organic": "yes",
    "shop": "convenience"
  }
},
{
  "type": "node",
  "id": 6406974246,
  "lat": 49.1829425,
  "lon": -0.3577973,
  "tags": {
    "access:covid19": "yes",
    "bulk_purchase": "only",
    "contact:facebook": "https://www.facebook.com/Daniel-de-day-by-day-Caen-341567016471343/",
    "delivery:covid19": "yes",
    "description:covid19": "horaires réduits",
    "name": "Day by Day",
    "opening_hours": "Tu-Sa 10:00-13:30,15:00-19:30; Su 10:00-13:30",
    "opening_hours:covid19": "Tu-Su 10:00-13:30",
    "operator": "Day by day",
    "organic": "yes",
    "shop": "convenience",
    "start_date": "2019-05",
    "website": "https://daybyday-shop.com/magasin/caen"
  }
},
{
  "type": "node",
  "id": 6415947009,
  "lat": 49.0814020,
  "lon": 0.7775682,
  "tags": {
    "addr:housenumber": "2",
    "addr:street": "Rue Chantereine",
    "bulk_purchase": "only",
    "contact:facebook": "https://www.facebook.com/La-Caverne-du-Vrac-1844810818891114/",
    "name": "La Caverne du Vrac",
    "organic": "yes",
    "shop": "convenience"
  }
},
{
  "type": "node",
  "id": 6416604793,
  "lat": 48.8851040,
  "lon": 2.3504174,
  "tags": {
    "addr:housenumber": "61",
    "addr:street": "Rue de la Goutte d'Or",
    "bulk_purchase": "only",
    "description:covid19": "Commandes à effectuer via la liste de courses disponible sur Facebook. Préparation des commandes le matin. Récupération des commandes l'après-midi entre 14h et 17h.",
    "name": "B-vrac",
    "opening_hours": "Mo 14:00-19:30; Tu-Sa 10:00-19:30",
    "opening_hours:covid19": "same",
    "organic": "only",
    "shop": "convenience",
    "website": "https://m.facebook.com/paubourdet/"
  }
},
{
  "type": "node",
  "id": 6416702269,
  "lat": 49.8932140,
  "lon": 2.2950625,
  "tags": {
    "addr:housenumber": "12",
    "addr:street": "Place de l'Hôtel de Ville",
    "bulk_purchase": "only",
    "contact:facebook": "https://www.facebook.com/laboiteabio/",
    "name": "La Boîte à Bio",
    "organic": "only",
    "shop": "convenience",
    "was:name": "Gaston",
    "was:shop": "jewelry",
    "website": "http://boite-a-bio.fr/"
  }
},
{
  "type": "node",
  "id": 6416702272,
  "lat": 47.2001689,
  "lon": -1.5891099,
  "tags": {
    "addr:city": "Nantes",
    "addr:housenumber": "40",
    "addr:postcode": "44100",
    "addr:street": "place Jean Macé",
    "bulk_purchase": "only",
    "contact:facebook": "https://www.facebook.com/chezlavoisineepicerie/",
    "name": "Chez la Voisine",
    "opening_hours": "Tu-Sa 10:00-13:00,15:00-19:30",
    "organic": "yes",
    "shop": "convenience",
    "source:bulk_purchase": "Collectif J'aime tes bocaux",
    "website": "http://chezlavoisine.bio/"
  }
},
{
  "type": "node",
  "id": 6475262511,
  "lat": 47.1904946,
  "lon": -1.5470441,
  "tags": {
    "bulk_purchase": "only",
    "contact:facebook": "https://www.facebook.com/ColegramBio/",
    "mapillary": "nucb0qNGjcBWEaBAV_ktfg",
    "name": "Colégram - Marché durable",
    "opening_hours": "Tu-Fr 11:00-20:00; Sa 10:00-19:00",
    "opening_hours:covid19": "same",
    "organic": "yes",
    "shop": "convenience",
    "website": "https://colegram.bio/"
  }
},
{
  "type": "node",
  "id": 6499364149,
  "lat": 47.3091211,
  "lon": -1.4622341,
  "tags": {
    "addr:city": "Carquefou",
    "addr:housenumber": "9",
    "addr:postcode": "44470",
    "addr:street": "Route des Pellerines",
    "bulk_purchase": "only",
    "description": "Légumes et petits fruits BIO, cueillette et vente directe, magasin de producteurs locaux.",
    "email": "contact@lafermeacueillir.fr",
    "name": "La Ferme à Cueillir",
    "opening_hours": "Mo 17:00-18:30; Fr 17:00-18:30; Sa 09:30-12:30",
    "opening_hours:covid19": "Mo,Fr 16:30-18:30; Sa 09:30-12:30",
    "organic": "only",
    "payment:cash": "yes",
    "payment:cheque": "yes",
    "payment:coins": "yes",
    "payment:credit_cards": "yes",
    "payment:debit_cards": "yes",
    "phone": "+33 6 42 19 15 64",
    "shop": "greengrocer",
    "website": "https://www.lafermeacueillir.fr/"
  }
},
{
  "type": "node",
  "id": 6503075479,
  "lat": 45.9566640,
  "lon": 2.1674824,
  "tags": {
    "addr:housenumber": "1",
    "addr:street": "Rue Vaveix",
    "bulk_purchase": "only",
    "contact:facebook": "https://www.facebook.com/lepicerieaubusson/",
    "name": "L'épicerie Aubusson",
    "organic": "yes",
    "shop": "convenience"
  }
},
{
  "type": "node",
  "id": 6514691326,
  "lat": 47.2462600,
  "lon": -2.1667115,
  "tags": {
    "addr:housenumber": "7",
    "addr:street": "Avenue du Maréchal Foch",
    "bulk_purchase": "only",
    "contact:facebook": "https://www.facebook.com/epicerie.retzaunee.7",
    "name": "Épicerie Retz'aunée",
    "opening_hours": "Mo-Sa 10:00-13:00, 15:30-19:00; We closed; Su 10:00-13:00",
    "organic": "only",
    "shop": "convenience",
    "wheelchair": "no"
  }
},
{
  "type": "node",
  "id": 6517620172,
  "lat": 47.2376265,
  "lon": -1.3463637,
  "tags": {
    "addr:housenumber": "14",
    "addr:street": "Rue des Halles",
    "bulk_purchase": "only",
    "contact:facebook": "https://www.facebook.com/Latelier-du-bocal-392818371580363/",
    "drive_through": "yes",
    "name": "L'atelier du Bocal",
    "organic": "yes",
    "shop": "convenience",
    "website": "https://www.latelierdubocal.com/"
  }
},
{
  "type": "node",
  "id": 6522587913,
  "lat": 44.0448046,
  "lon": 4.4406337,
  "tags": {
    "addr:housenumber": "7",
    "addr:postcode": "30700",
    "addr:street": "Place du Monument aux Morts",
    "bulk_purchase": "only",
    "contact:facebook": "https://www.facebook.com/Chez-Lucette-Epicerie-Bio-157067425005335/",
    "name": "Chez Lucette",
    "organic": "only",
    "shop": "convenience"
  }
},
{
  "type": "node",
  "id": 6535218455,
  "lat": 48.8552939,
  "lon": 2.3877784,
  "tags": {
    "addr:housenumber": "141",
    "addr:postcode": "75011",
    "addr:street": "Rue de Charonne",
    "bulk_purchase": "only",
    "contact:facebook": "https://www.facebook.com/MoodEpicerie/",
    "name": "Mood Épicerie",
    "organic": "yes",
    "shop": "convenience"
  }
},
{
  "type": "node",
  "id": 6535218459,
  "lat": 49.3582188,
  "lon": 6.1394903,
  "tags": {
    "addr:street": "Rue des Auriges",
    "bulk_purchase": "only",
    "description:covid19": "En travaux",
    "name": "Les Bocaux de Camille",
    "opening_hours:covid19": "off",
    "organic": "yes",
    "shop": "convenience",
    "website": "https://www.lesbocauxdecamille.fr/"
  }
},
{
  "type": "node",
  "id": 6535218460,
  "lat": 43.1253488,
  "lon": 6.0104427,
  "tags": {
    "bulk_purchase": "only",
    "contact:facebook": "https://www.facebook.com/LaReservedeChicoetLoca/",
    "name": "La Réserve de Chico et Loca",
    "organic": "yes",
    "shop": "convenience"
  }
},
{
  "type": "node",
  "id": 6535218461,
  "lat": 50.7213869,
  "lon": 3.1618611,
  "tags": {
    "addr:housenumber": "71",
    "addr:street": "Rue de Tournai",
    "bulk_purchase": "only",
    "contact:facebook": "https://www.facebook.com/Epicerie-Chez-Lucille-973874579463053/",
    "name": "Chez Lucille",
    "organic": "yes",
    "shop": "convenience"
  }
},
{
  "type": "node",
  "id": 6553999954,
  "lat": 47.7993933,
  "lon": -3.2918829,
  "tags": {
    "addr:city": "Hennebont",
    "addr:housenumber": "82",
    "addr:postcode": "56700",
    "addr:street": "Avenue de la République",
    "bulk_purchase": "only",
    "contact:facebook": "https://www.facebook.com/La-Terre-Native-%C3%A9picerie-z%C3%A9ro-d%C3%A9chet-Hennebont-336246260147253/",
    "name": "La Terre Native",
    "opening_hours:covid19": "Mo-Sa 10:00-12:30",
    "shop": "convenience",
    "source": "cadastre-dgi-fr source : Direction Générale des Impôts - Cadastre. Mise à jour : 2010"
  }
},
{
  "type": "node",
  "id": 6568016371,
  "lat": 46.7812613,
  "lon": 4.8541324,
  "tags": {
    "addr:city": "Chalon-sur-Saône",
    "addr:housenumber": "4",
    "addr:postcode": "71100",
    "addr:street": "Rue du Général Leclerc",
    "bulk_purchase": "only",
    "name": "Day by day",
    "opening_hours": "Tu-Sa 10:00-13:30,15:30-19:30",
    "organic": "yes",
    "phone": "+33345779865",
    "shop": "convenience",
    "website": "https://daybyday-shop.com/magasin/chalon-sur-saone/"
  }
},
{
  "type": "node",
  "id": 6581921563,
  "lat": 16.2420281,
  "lon": -61.5687001,
  "tags": {
    "addr:city": "Baie-Mahault",
    "addr:housenumber": "51",
    "addr:postcode": "97122",
    "addr:street": "Rue Henri Becquerel",
    "bulk_purchase": "only",
    "contact:facebook": "https://www.facebook.com/epicerievrac.bioguadeloupe.7",
    "name": "L'épicerie en Vrac",
    "organic": "only",
    "shop": "convenience"
  }
},
{
  "type": "node",
  "id": 6581948945,
  "lat": 50.1724182,
  "lon": 3.2318705,
  "tags": {
    "addr:city": "Cambrai",
    "addr:housenumber": "7",
    "addr:postcode": "59400",
    "addr:street": "Place du Saint-Sépulcre",
    "bulk_purchase": "only",
    "contact:facebook": "https://www.facebook.com/pg/boutiquelalternative/",
    "name": "L'Alternative",
    "organic": "yes",
    "shop": "convenience"
  }
},
{
  "type": "node",
  "id": 6604901358,
  "lat": 49.6949095,
  "lon": 4.0146794,
  "tags": {
    "addr:city": "Montcornet",
    "addr:housenumber": "53",
    "addr:postcode": "02340",
    "addr:street": "Place de l'Hôtel de Ville",
    "bulk_purchase": "only",
    "contact:facebook": "https://www.facebook.com/aurorerenardmaquin/",
    "name": "Le Renard'eau",
    "shop": "convenience"
  }
},
{
  "type": "node",
  "id": 6619427955,
  "lat": 43.5262676,
  "lon": 5.4528778,
  "tags": {
    "addr:city": "Aix-en-Provence",
    "addr:housenumber": "19",
    "addr:postcode": "13100",
    "addr:street": "Rue d'Italie",
    "bulk_purchase": "only",
    "contact:facebook": "https://www.facebook.com/BioDiciAix/",
    "name": "BioDici",
    "organic": "yes",
    "shop": "convenience",
    "website": "https://www.biodici.fr/"
  }
},
{
  "type": "node",
  "id": 6657973303,
  "lat": 47.7373389,
  "lon": -3.4285860,
  "tags": {
    "access:covid19": "yes",
    "addr:city": "Plœmeur",
    "addr:postcode": "56270",
    "addr:street": "Place Jean Falquerho",
    "bulk_purchase": "only",
    "contact:facebook": "https://www.facebook.com/EpicerieLaBonneDose/",
    "delivery:covid19": "no",
    "name": "La Bonne Dose",
    "opening_hours:covid19": "open",
    "organic": "yes",
    "shop": "convenience",
    "takeaway:covid19": "yes",
    "website": "https://la-bonne-dose.com/"
  }
},
{
  "type": "node",
  "id": 6658191817,
  "lat": 44.2751110,
  "lon": 5.2747033,
  "tags": {
    "addr:city": "Buis-les-Baronnies",
    "addr:housenumber": "16",
    "addr:postcode": "26170",
    "addr:street": "Rue Notre-Dame la Brune",
    "bulk_purchase": "only",
    "contact:facebook": "https://www.facebook.com/BioVracBuis/",
    "name": "Festi'Vrac",
    "organic": "only",
    "shop": "convenience"
  }
},
{
  "type": "node",
  "id": 6660776760,
  "lat": 49.6986322,
  "lon": 2.7913840,
  "tags": {
    "addr:city": "Roye",
    "addr:housenumber": "35",
    "addr:postcode": "80700",
    "addr:street": "Rue Saint-Pierre",
    "bulk_purchase": "only",
    "contact:facebook": "https://m.facebook.com/Ô-temps-suspends-ton-vol-2827446647295866/",
    "name": "O temps, suspends ton vol",
    "organic": "yes",
    "shop": "convenience",
    "website": "https://otempssuspendstonvol.fr/"
  }
},
{
  "type": "node",
  "id": 6687763610,
  "lat": 45.1448480,
  "lon": 4.1245652,
  "tags": {
    "addr:city": "Yssingeaux",
    "addr:housenumber": "4",
    "addr:postcode": "43200",
    "addr:street": "Place de Chaussand",
    "bulk_purchase": "only",
    "contact:facebook": "https://www.facebook.com/VracYssime/",
    "name": "Vrac'Yssime",
    "organic": "yes",
    "shop": "convenience"
  }
},
{
  "type": "node",
  "id": 6687767661,
  "lat": 44.2040060,
  "lon": 0.6181823,
  "tags": {
    "addr:city": "Agen",
    "addr:housenumber": "16",
    "addr:postcode": "47000",
    "addr:street": "Place Jean-Baptiste Durand",
    "bulk_purchase": "only",
    "contact:facebook": "https://www.facebook.com/capartenvrac/",
    "name": "Ca part en vrac",
    "organic": "yes",
    "shop": "convenience"
  }
},
{
  "type": "node",
  "id": 6755785519,
  "lat": 43.2918690,
  "lon": 5.5689394,
  "tags": {
    "addr:city": "Aubagne",
    "addr:housenumber": "48",
    "addr:postcode": "13400",
    "addr:street": "Rue de la République",
    "bulk_purchase": "only",
    "contact:facebook": "https://www.facebook.com/graines.andco.9",
    "description:covid19": "Commande possible par messagerie. Livraisons possibles dès que le site internet sera créé.",
    "name": "Graines&Co",
    "opening_hours:covid19": "open",
    "organic": "yes",
    "shop": "convenience",
    "takeaway:covid19": "only"
  }
},
{
  "type": "node",
  "id": 6766626243,
  "lat": 50.4449072,
  "lon": 3.8135043,
  "tags": {
    "addr:city": "Saint-Ghislain",
    "addr:housenumber": "1",
    "addr:postcode": "7330",
    "addr:street": "Avenue des Droits de l'Homme",
    "bulk_purchase": "only",
    "name": "T.O.vrac",
    "organic": "only",
    "shop": "convenience"
  }
},
{
  "type": "node",
  "id": 6797206230,
  "lat": 50.6630797,
  "lon": 3.1046777,
  "tags": {
    "addr:city": "Marcq-en-Barœul",
    "addr:housenumber": "20",
    "addr:postcode": "59700",
    "addr:street": "Rue de l'Égalité",
    "bulk_purchase": "only",
    "contact:facebook": "https://www.facebook.com/BocoandCo/",
    "delivery:covid19": "yes",
    "name": "Boco & Co",
    "opening_hours:covid19": "Tu-Fr 09:30-15:00; Sa 10:00-18:00",
    "shop": "convenience",
    "website": "http://bocoandco.fr/"
  }
},
{
  "type": "node",
  "id": 6817357653,
  "lat": 47.0806966,
  "lon": 2.3918674,
  "tags": {
    "brand": "day by day",
    "bulk_purchase": "only",
    "email": "daybyday.bourges@gmail.com",
    "name": "Day By Day",
    "opening_hours": "Tu-Sa 09:45-13:30,15:00-19:00",
    "opening_hours:covid19": "Tu-Sa 09:00-13:00,14:00-17:30",
    "organic": "yes",
    "phone": "+33 2 48 70 57 38",
    "shop": "convenience",
    "website": "http://daybyday-shop.com/magasin/bourges"
  }
},
{
  "type": "node",
  "id": 6821706572,
  "lat": 43.2977729,
  "lon": -0.3660688,
  "tags": {
    "addr:city": "Pau",
    "addr:housenumber": "14",
    "addr:postcode": "64000",
    "addr:street": "Cours Bosquet",
    "bulk_purchase": "only",
    "contact:facebook": "https://www.facebook.com/monicadedaybydaypau/",
    "email": "daybyday.pau@gmail.com",
    "name": "Day By Day",
    "opening_hours": "Mo 15:00-19:00; Tu-Sa 10:00-13:00,15:00-19:00; We 10:00-13:00,15:00-19:30",
    "organic": "yes",
    "phone": "+33 5 40 03 35 88",
    "shop": "convenience",
    "website": "https://daybyday-shop.com/magasin/pau"
  }
},
{
  "type": "node",
  "id": 6840634231,
  "lat": 45.7686373,
  "lon": -1.1400373,
  "tags": {
    "addr:city": "La Tremblade",
    "addr:housenumber": "18",
    "addr:postcode": "17390",
    "addr:street": "Rue Foran",
    "bulk_purchase": "only",
    "contact:facebook": "https://www.facebook.com/Le-Jabot-%C3%A0-tous-Grains-329086934689104/",
    "name": "Le Jabot à tous les Grains",
    "organic": "yes",
    "shop": "convenience"
  }
},
{
  "type": "node",
  "id": 6840743791,
  "lat": 49.8473604,
  "lon": 3.2876765,
  "tags": {
    "addr:city": "Saint-Quentin",
    "addr:housenumber": "6",
    "addr:postcode": "02100",
    "addr:street": "Rue Croix Belle-Porte",
    "bulk_purchase": "only",
    "highway": "Day By Day",
    "opening_hours": "Tu-Fr 09:33-13:00,15:00-19:00; Sa 09:00-13:30,14:30-19:00; Su 14:00-18:00",
    "organic": "yes",
    "phone": "+33323682411",
    "shop": "convenience",
    "website": "http://daybyday-shop.com/magasin/saint-quentin"
  }
},
{
  "type": "node",
  "id": 6840755806,
  "lat": 48.9163691,
  "lon": 2.2771877,
  "tags": {
    "addr:city": "Asnières-sur-Seine",
    "addr:housenumber": "122",
    "addr:postcode": "92600",
    "addr:street": "Rue des Bourguignons",
    "bulk_purchase": "only",
    "name": "Day by Day",
    "opening_hours": "Tu-Sa 10:00-13:30,15:30-19:30; Su 10:00-13:30",
    "organic": "yes",
    "phone": "+33142041674",
    "shop": "convenience",
    "website": "http://daybyday-shop.com/magasin/asnieres-sur-seine"
  }
},
{
  "type": "node",
  "id": 6840790431,
  "lat": 48.9885660,
  "lon": 2.2448573,
  "tags": {
    "addr:city": "Ermont",
    "addr:postcode": "95120",
    "addr:street": "Avenue du Président Georges Pompidou",
    "bulk_purchase": "only",
    "name": "Day By Day",
    "organic": "yes",
    "shop": "convenience",
    "website": "http://daybyday-shop.com/magasin/ermont"
  }
},
{
  "type": "node",
  "id": 6844581305,
  "lat": 45.7785504,
  "lon": 4.8047825,
  "tags": {
    "bulk_purchase": "only",
    "contact:facebook": "EpicerievracLyon9",
    "description:covid19": "commande en ligne",
    "name": "Elodra D'OZ",
    "opening_hours:covid19": "Mo-Fr 10:00-18:00;Sa 10:00-14:00",
    "organic": "only",
    "shop": "convenience",
    "website": "https://eldoradoz.fr/"
  }
},
{
  "type": "node",
  "id": 6844608936,
  "lat": 45.9766447,
  "lon": 5.5996184,
  "tags": {
    "addr:city": "Plateau d'Hauteville",
    "addr:housenumber": "42",
    "addr:postcode": "01110",
    "addr:street": "Avenue de Lyon",
    "bulk_purchase": "only",
    "contact:facebook": "https://www.facebook.com/maindanslevrac/",
    "description:covid19": "Commandes possibles par téléphone, mail ou messenger (Facebook). Plus de renseignements sur la page facebook @maindanslevrac",
    "name": "La main dans le vrac",
    "opening_hours:covid19": "Tu 13:30-18:30; We-Sa 09:30-13:30,14:30-18:30",
    "organic": "yes",
    "shop": "convenience"
  }
},
{
  "type": "node",
  "id": 6844635031,
  "lat": 48.7655144,
  "lon": 2.6728395,
  "tags": {
    "addr:city": "Ozoir-la-Ferrière",
    "addr:housenumber": "19",
    "addr:postcode": "77330",
    "addr:street": "Avenue du Général Leclerc",
    "bulk_purchase": "only",
    "contact:facebook": "https://www.facebook.com/epicerie.alternactive/",
    "name": "Epicerie altern'active",
    "opening_hours:covid19": "We-Sa 14:00-18:00",
    "organic": "yes",
    "shop": "convenience"
  }
},
{
  "type": "node",
  "id": 6844642981,
  "lat": 45.7321993,
  "lon": 4.9979801,
  "tags": {
    "addr:city": "Genas",
    "addr:housenumber": "9",
    "addr:postcode": "69740",
    "addr:street": "Rue de la République",
    "bulk_purchase": "only",
    "contact:facebook": "https://www.facebook.com/opoids/",
    "name": "Ô Poids",
    "organic": "yes",
    "shop": "convenience"
  }
},
{
  "type": "node",
  "id": 6844660243,
  "lat": 47.4136472,
  "lon": -1.6519762,
  "tags": {
    "addr:city": "Héric",
    "addr:housenumber": "9",
    "addr:postcode": "44810",
    "addr:street": "Place Saint-Nicolas",
    "bulk_purchase": "only",
    "contact:facebook": "https://www.facebook.com/NATUREVRAC/",
    "name": "Nature & Vra'c",
    "organic": "yes",
    "shop": "convenience"
  }
},
{
  "type": "node",
  "id": 6844660687,
  "lat": 48.7361243,
  "lon": 7.3698270,
  "tags": {
    "addr:city": "Saverne",
    "addr:housenumber": "64",
    "addr:postcode": "67700",
    "addr:street": "Rue Saint-Nicolas",
    "bulk_purchase": "only",
    "contact:facebook": "https://www.facebook.com/Vracomarch%C3%A9-2254986734537643/",
    "name": "Vracomarché",
    "shop": "convenience",
    "website": "https://www.vracomarche.fr/"
  }
},
{
  "type": "node",
  "id": 6844660980,
  "lat": 48.6121410,
  "lon": -3.4737170,
  "tags": {
    "addr:city": "Plouaret",
    "addr:postcode": "22420",
    "addr:street": "Place de l'Église",
    "bulk_purchase": "only",
    "contact:facebook": "https://www.facebook.com/lekribivrac/",
    "name": "Kribi Vrac",
    "shop": "convenience"
  }
},
{
  "type": "node",
  "id": 6932921138,
  "lat": 47.2176775,
  "lon": -1.5551916,
  "tags": {
    "bulk_purchase": "only",
    "contact:city": "Nantes",
    "contact:facebook": "https://www.facebook.com/OBocal",
    "contact:housenumber": "3",
    "contact:instagram": "https://www.instagram.com/OBocal/",
    "contact:postcode": "44000",
    "contact:street": "Rue de l'Hôtel de Ville",
    "contact:twitter": "https://twitter.com/OBocal",
    "description": "Boutique sans emballage. Produits du quotidien (lessive, savon…)\nÉquipement zero-déchet: (gourde, serviette lavable...)",
    "email": "contact@obocal.com",
    "name": "Ô Bocal - Droguerie",
    "opening_hours": "Tu-Fr 09:00-19:30; Sa 10:00-19:00",
    "opening_hours:covid19": "Tu-Fr 09:00-13:00; Sa 10:00-13:00,15:00-19:00",
    "organic": "only",
    "shop": "convenience",
    "source": "Association Mieux trier à Nantes, 07/2016",
    "source:bulk_purchase": "Collectif J'aime tes bocaux",
    "survey:date": "2019-02-24",
    "website": "http://www.obocal.com/",
    "wheelchair": "limited"
  }
},
{
  "type": "node",
  "id": 6976289125,
  "lat": 48.7931892,
  "lon": 2.4623732,
  "tags": {
    "access:covid19": "yes",
    "addr:city": "Créteil",
    "addr:housenumber": "17",
    "addr:postcode": "94000",
    "addr:street": "Rue du Général Leclerc",
    "bulk_purchase": "only",
    "contact:facebook": "https://m.facebook.com/Couleur-vrac-2057855044260094/",
    "delivery:covid19": "no",
    "description:covid19": "Uniquement sur commande Bon de commande à demander par mail à nathalie@couleurvrac.fr",
    "name": "Couleur Vrac",
    "opening_hours": "Tu-Sa 10:00-13:30,15:00-19:00; Su 09:30-13:00",
    "opening_hours:covid19": "Tu-Sa 10:00-13:30,15:00-19:00; Su 09:30-13:00",
    "organic": "yes",
    "shop": "convenience"
  }
},
{
  "type": "node",
  "id": 7040959637,
  "lat": 46.1180100,
  "lon": -0.9359706,
  "tags": {
    "addr:city": "Aigrefeuille-d'Aunis",
    "addr:housenumber": "17",
    "addr:postcode": "17290",
    "addr:street": "rue du Château d'Eau",
    "bulk_purchase": "only",
    "description": "Epicerie Bio et Vrac. Acceptant les contenants réutilisables. ",
    "name": "ESPRIT VRAC",
    "organic": "only",
    "phone": "+33 6 03 95 35 21",
    "shop": "supermarket",
    "source:bulk_purchase": "Syndicat Mixte Cyclad",
    "website": "https://espritvrac.fr"
  }
},
{
  "type": "node",
  "id": 7100082503,
  "lat": 42.6981589,
  "lon": 2.8938115,
  "tags": {
    "bulk_purchase": "only",
    "contact:city": "Perpignan",
    "contact:facebook": "https://www.facebook.com/silosetco/",
    "contact:housenumber": "19",
    "contact:postcode": "66000",
    "contact:street": "Rue de l'Ange",
    "name": "Silos & co",
    "organic": "yes",
    "shop": "convenience"
  }
},
{
  "type": "node",
  "id": 7100092137,
  "lat": 50.6145357,
  "lon": 3.1137205,
  "tags": {
    "addr:city": "Lezennes",
    "addr:housenumber": "5",
    "addr:postcode": "59260",
    "addr:street": "Rue Sadi Carnot",
    "bulk_purchase": "only",
    "name": "Le bocal Zen",
    "organic": "yes",
    "shop": "convenience",
    "website": "https://le-bocal-zen.fr/"
  }
},
{
  "type": "node",
  "id": 7104561386,
  "lat": 46.1581146,
  "lon": 4.1730132,
  "tags": {
    "access:covid19": "yes",
    "bulk_purchase": "only",
    "check_date:opening_hours": "2020-01-03",
    "contact:email": "mogette.romarin@gmail.com",
    "contact:facebook": "https://www.facebook.com/MogetteRomarin/",
    "contact:housenumber": "37",
    "contact:phone": "+33477695753",
    "contact:postcode": "42190",
    "contact:street": "Rue Chanteloup",
    "delivery:covid19": "yes",
    "description": "Épicerie 100% vrac, bio, éco-responsable",
    "description:covid19": "Le local de M&R est fermé au public mais les retraits de commande restent possible sur place, livraison possible à 15km autour. Commandes par courriel ou par Messeger (Facebook).",
    "name": "Mogette & Romarin",
    "opening_hours": "Mo-Sa 09:30-13:30,14:30-19:30",
    "opening_hours:covid19": "open",
    "organic": "only",
    "shop": "convenience",
    "source:opening_hours": "survey",
    "takeaway:covid19": "only"
  }
},
{
  "type": "node",
  "id": 7107736593,
  "lat": 46.3724281,
  "lon": 6.4804420,
  "tags": {
    "bulk_purchase": "only",
    "contact:website": "https://www.mademoisellevrac.fr/",
    "name": "Mademoiselle Vrac",
    "organic": "yes",
    "shop": "convenience"
  }
},
{
  "type": "node",
  "id": 7108837833,
  "lat": 48.8639215,
  "lon": 1.4213815,
  "tags": {
    "addr:city": "Ezy-sur-Eure",
    "addr:housenumber": "6",
    "addr:postcode": "27530",
    "addr:street": "Rue Isambard",
    "bulk_purchase": "only",
    "contact:facebook": "https://www.facebook.com/optitbocal27/",
    "name": "O P'tit bocal",
    "organic": "yes",
    "shop": "convenience"
  }
},
{
  "type": "node",
  "id": 7108924916,
  "lat": 47.4222618,
  "lon": 6.0709734,
  "tags": {
    "addr:city": "Rioz",
    "addr:housenumber": "86",
    "addr:postcode": "70190",
    "addr:street": "Rue Charles de Gaulle",
    "bulk_purchase": "only",
    "contact:facebook": "https://www.facebook.com/levracdeMelissa/",
    "name": "Le vrac de Mélissa",
    "organic": "only",
    "shop": "convenience"
  }
},
{
  "type": "node",
  "id": 7109551892,
  "lat": 49.4453195,
  "lon": 1.0870222,
  "tags": {
    "addr:city": "Rouen",
    "addr:housenumber": "120",
    "addr:postcode": "76000",
    "addr:street": "Rue des Bons Enfants",
    "bulk_purchase": "only",
    "currency:EUR": "yes",
    "name": "Contre-Poids",
    "opening_hours": "Tu 10:00-19:30; We 10:00-19:00; Th 10:00-19:30; Sa 09:30-19:30; Su Tu 09:30-13:00",
    "opening_hours:covid19": "open",
    "organic": "yes",
    "payment:cash": "yes",
    "payment:credit_cards": "yes",
    "shop": "deli",
    "start_date": "2019-09",
    "website": "https://epicerieozenne.wixsite.com/website"
  }
},
{
  "type": "node",
  "id": 7122303108,
  "lat": 43.3357498,
  "lon": 5.4816892,
  "tags": {
    "addr:city": "Allauch",
    "addr:housenumber": "22",
    "addr:postcode": "13190",
    "addr:street": "Rue Frédéric Chevillon",
    "bulk_purchase": "only",
    "name": "La Petite Française Bio",
    "organic": "only",
    "shop": "convenience",
    "website": "https://lapetitefrancaisebio.com/"
  }
},
{
  "type": "node",
  "id": 7122311018,
  "lat": 43.6187663,
  "lon": 3.8629527,
  "tags": {
    "addr:city": "Montpellier",
    "addr:housenumber": "412",
    "addr:postcode": "34000",
    "addr:street": "Avenue du Père Soulas",
    "bulk_purchase": "only",
    "contact:facebook": "https://www.facebook.com/KESAKO.vrac/",
    "description": "Épicerie zéro déchets Produits de saisons",
    "name": "Kesako",
    "opening_hours:covid19": "Mo-Fr 10:00-12:30,16:00-18:30; Sa 10:00-13:00",
    "shop": "convenience"
  }
},
{
  "type": "node",
  "id": 7252866249,
  "lat": 49.5499673,
  "lon": 3.6295335,
  "tags": {
    "bulk_purchase": "only",
    "contact:facebook": "https://www.facebook.com/lengrain02/",
    "name": "L'engrain",
    "opening_hours": "Tu-Fr 10:00-13:00,14:30-18:30; Sa 09:30-12:30,14:30-18:30",
    "organic": "only",
    "shop": "convenience"
  }
},
{
  "type": "node",
  "id": 7253703483,
  "lat": 43.4043593,
  "lon": 3.6943240,
  "tags": {
    "addr:city": "Sète",
    "addr:housenumber": "5",
    "addr:postcode": "34200",
    "addr:street": "Rue du 11 Novembre 1918",
    "bulk_purchase": "only",
    "contact:facebook": "https://www.facebook.com/lacalebassebleue/",
    "name": "La calebasse bleue",
    "opening_hours:covid19": "open",
    "organic": "yes",
    "payment:graine": "yes",
    "shop": "convenience",
    "takeaway:covid19": "only"
  }
},
{
  "type": "node",
  "id": 7292486199,
  "lat": 47.7581161,
  "lon": -2.8453792,
  "tags": {
    "addr:city": "Grand-Champ",
    "addr:housenumber": "9",
    "addr:postcode": "56390",
    "addr:street": "Place de l'Église",
    "bulk_purchase": "only",
    "name": "Le Bocal à Malices",
    "opening_hours:covid19": "open",
    "organic": "yes",
    "shop": "convenience",
    "website": "http://www.lebocalamalices.com/"
  }
},
{
  "type": "node",
  "id": 7292486200,
  "lat": 47.2330192,
  "lon": -1.6449894,
  "tags": {
    "addr:street": "Rue du Moulin de la Rousselière",
    "bulk_purchase": "only",
    "drive_in": "yes",
    "name": "La Fabrik à Vrac",
    "organic": "only",
    "shop": "supermarket",
    "website": "https://www.lafabrikavrac.fr/"
  }
},
{
  "type": "node",
  "id": 7309327524,
  "lat": 46.5639312,
  "lon": 3.3314275,
  "tags": {
    "addr:housenumber": "11",
    "addr:street": "Rue Paul Bert",
    "bulk_purchase": "only",
    "name": "ConsoTopia",
    "organic": "only",
    "shop": "convenience",
    "website": "https://www.consotopia.org/"
  }
},
{
  "type": "node",
  "id": 7309327525,
  "lat": 47.1678631,
  "lon": -1.5430302,
  "tags": {
    "addr:housenumber": "4",
    "bulk_purchase": "only",
    "contact:facebook": "https://www.facebook.com/LeNidVgtal",
    "delivery:covid19": "no",
    "name": "Le Nid Vgtal",
    "opening_hours:covid19": "open",
    "organic": "only",
    "shop": "convenience"
  }
},
{
  "type": "node",
  "id": 7312657413,
  "lat": 46.5370098,
  "lon": 2.6077407,
  "tags": {
    "addr:housenumber": "22",
    "addr:street": "Rue Paul Constans",
    "bulk_purchase": "only",
    "contact:facebook": "https://www.facebook.com/EcoBougnat/",
    "name": "L'Eco Bougnat",
    "organic": "yes",
    "shop": "convenience"
  }
},
{
  "type": "node",
  "id": 7312657417,
  "lat": 48.3023671,
  "lon": -0.6135451,
  "tags": {
    "addr:housenumber": "47",
    "bulk_purchase": "only",
    "contact:facebook": "https://www.facebook.com/generationvrac",
    "name": "Génération Vrac",
    "organic": "yes",
    "shop": "convenience"
  }
},
{
  "type": "node",
  "id": 7312783744,
  "lat": 47.3264527,
  "lon": -2.1580693,
  "tags": {
    "addr:housenumber": "34",
    "addr:street": "Rue George Sand",
    "bulk_purchase": "only",
    "contact:facebook": "https://www.facebook.com/epicerieenbriere/",
    "name": "Les Fêlées du Bocal",
    "organic": "yes",
    "shop": "convenience"
  }
},
{
  "type": "node",
  "id": 7343211159,
  "lat": 48.8649964,
  "lon": 2.4040949,
  "tags": {
    "addr:housenumber": "44",
    "bulk_purchase": "only",
    "name": "Day by Day",
    "opening_hours:covid19": "open",
    "operator": "Day by Day",
    "organic": "yes",
    "shop": "convenience",
    "website": "https://daybyday-shop.com/magasin/paris-20/"
  }
},
{
  "type": "node",
  "id": 7343211160,
  "lat": 45.7534867,
  "lon": 4.8465422,
  "tags": {
    "bulk_purchase": "only",
    "contact:email": "daybyday.lyon7@gmail.com",
    "contact:phone": "+33 4 37 37 49 87",
    "contact:website": "https://daybyday-shop.com/magasin/lyon7/",
    "name": "Day by Day",
    "opening_hours": "Tu-Fr 10:00-13:30,15:00-19:30; Sa 10:00-13:30,14:30-19:30",
    "operator": "Day by Day",
    "organic": "yes",
    "ref:FR:SIRET": "88160707100019",
    "shop": "convenience"
  }
},
{
  "type": "node",
  "id": 7343211161,
  "lat": 48.8585761,
  "lon": 2.3833752,
  "tags": {
    "access:covid19": "yes",
    "addr:housenumber": "131 bis",
    "bulk_purchase": "only",
    "delivery:covid19": "no",
    "name": "Day by Day",
    "opening_hours:covid19": "open",
    "operator": "Day by Day",
    "organic": "yes",
    "shop": "convenience",
    "takeaway:covid19": "yes",
    "website": "https://daybyday-shop.com/magasin/paris11/"
  }
},
{
  "type": "node",
  "id": 7343211162,
  "lat": 48.8941515,
  "lon": 2.5131282,
  "tags": {
    "addr:housenumber": "61",
    "bulk_purchase": "only",
    "name": "Day by Day",
    "operator": "Day by Day",
    "organic": "yes",
    "shop": "convenience",
    "website": "https://daybyday-shop.com/magasin/le-raincy/"
  }
},
{
  "type": "node",
  "id": 7343211163,
  "lat": 45.5653594,
  "lon": 5.9250673,
  "tags": {
    "addr:city": "Chambéry",
    "addr:housenumber": "52",
    "addr:postcode": "73000",
    "addr:street": "Rue d'Italie",
    "bulk_purchase": "only",
    "contact:email": "daybyday.chambery@gmail.com",
    "contact:phone": "+33 4 79 68 02 59",
    "contact:website": "https://daybyday-shop.com/magasin/chambery/",
    "name": "Day by Day",
    "opening_hours:covid19": "Tu-Fr 10:00-16:00; Sa 10:00-18:00",
    "operator": "Day by Day",
    "organic": "yes",
    "shop": "convenience"
  }
},
{
  "type": "node",
  "id": 7343279935,
  "lat": 48.3542019,
  "lon": -1.1986421,
  "tags": {
    "addr:city": "Fougères",
    "addr:housenumber": "2",
    "addr:postcode": "35300",
    "addr:street": "Rue Baron",
    "bulk_purchase": "only",
    "name": "L'Ethiquette",
    "opening_hours:covid19": "open",
    "shop": "convenience"
  }
},
{
  "type": "node",
  "id": 7345891164,
  "lat": 46.8128306,
  "lon": 1.6932729,
  "tags": {
    "addr:city": "Châteauroux",
    "addr:housenumber": "58",
    "addr:postcode": "36000",
    "addr:street": "Rue Grande",
    "bulk_purchase": "only",
    "delivery:covid19": "yes",
    "email": "contact@latelierduvrac.fr",
    "name": "L'Atelier du Vrac",
    "opening_hours": "Tu-Fr 10:00-12:30,15:00-19:00; Sa 09:00-13:00,15:30-19:00",
    "opening_hours:covid19": "Tu-Sa 09:30-12:00",
    "organic": "only",
    "phone": "+033 9 81 73 19 36;+033 06 26 07 28 26",
    "shop": "convenience",
    "website": "https://www.latelierduvrac.fr/"
  }
},
{
  "type": "node",
  "id": 7368308945,
  "lat": 44.8371968,
  "lon": -0.5712398,
  "tags": {
    "addr:city": "Bordeaux",
    "addr:housenumber": "38",
    "addr:postcode": "33000",
    "addr:street": "Rue Sainte-Colombe",
    "bulk_purchase": "only",
    "level": "0",
    "name": "La Recharge",
    "opening_hours:covid19": "Tu-Sa 10:00-19:00",
    "operator": "Jules Rivet",
    "organic": "only",
    "shop": "convenience",
    "website": "http://www.la-recharge.fr/",
    "wheelchair": "yes"
  }
},
{
  "type": "node",
  "id": 7371479754,
  "lat": 43.8013220,
  "lon": 4.3749768,
  "tags": {
    "addr:city": "CAISSARGUES",
    "addr:housenumber": "150",
    "addr:postcode": "30132",
    "addr:street": "Route de Nîmes",
    "bulk_purchase": "only",
    "drive_through": "yes",
    "name": "Click&Vrac",
    "opening_hours": "Mo-Su 10:00-19:30",
    "organic": "yes",
    "payment:cheque": "yes",
    "payment:credit_cards": "yes",
    "shop": "health_food",
    "website": "https://clicketvrac.com/"
  }
},
{
  "type": "node",
  "id": 7426361186,
  "lat": 48.8770637,
  "lon": 2.5851326,
  "tags": {
    "addr:city": "Chelles",
    "addr:housenumber": "30",
    "addr:postcode": "77500",
    "addr:street": "Avenue de la Résistance",
    "bulk_purchase": "only",
    "contact:facebook": "https://www.facebook.com/laboutiquevracetco/",
    "delivery:covid19": "no",
    "description:covid19": "Réouverture le 15 mai à 9h30.",
    "email": "laboutiquevracetco@gmail.com",
    "name": "La Boutique Vrac et Co",
    "opening_hours": "Tu-Su 09:30-12:30,15:00-19:15",
    "opening_hours:covid19": "Tu-Su 09:30-13:00; Apr 30-May 14 off",
    "organic": "yes",
    "phone": "+33187622856",
    "shop": "convenience",
    "takeaway:covid19": "yes",
    "website": "https://www.laboutiquevracetco.com/"
  }
},
{
  "type": "node",
  "id": 7436684657,
  "lat": 48.5489000,
  "lon": -2.7914500,
  "tags": {
    "addr:housenumber": "2",
    "addr:street": "Rue François Jacob",
    "bulk_purchase": "only",
    "contact:facebook": "https://www.facebook.com/unbocalalamer/",
    "name": "Un bocal à la mer",
    "organic": "yes",
    "shop": "convenience"
  }
},
{
  "type": "node",
  "id": 7437742057,
  "lat": 44.0558492,
  "lon": 5.0486436,
  "tags": {
    "addr:housenumber": "61",
    "addr:street": "Rue des Halles",
    "bulk_purchase": "only",
    "contact:facebook": "https://www.facebook.com/grainesnatureetcompagnie",
    "name": "Graines, Nature & Compagnie",
    "organic": "only",
    "shop": "convenience"
  }
},
{
  "type": "node",
  "id": 7437742058,
  "lat": 47.9592902,
  "lon": -3.8316482,
  "tags": {
    "addr:housenumber": "33",
    "addr:street": "Rue Nationale",
    "bulk_purchase": "only",
    "name": "Au local",
    "organic": "yes",
    "shop": "convenience",
    "website": "https://epicerieaulocal.fr/"
  }
},
{
  "type": "node",
  "id": 7437742059,
  "lat": 44.4681310,
  "lon": 4.3483214,
  "tags": {
    "addr:housenumber": "75 bis",
    "addr:street": "Route de Pradons",
    "bulk_purchase": "only",
    "name": "Alternative Terre",
    "organic": "yes",
    "shop": "convenience",
    "website": "https://www.alternative-terre.com/"
  }
},
{
  "type": "node",
  "id": 7448377351,
  "lat": 48.0414952,
  "lon": 7.1335071,
  "tags": {
    "addr:housenumber": "43",
    "addr:postcode": "68140",
    "addr:street": "Grand'Rue",
    "bulk_purchase": "only",
    "contact:facebook": "https://www.facebook.com/epicerievraclessentiel/",
    "name": "L'essentiel",
    "organic": "yes",
    "shop": "convenience"
  }
},
{
  "type": "node",
  "id": 7492210952,
  "lat": 46.0302118,
  "lon": 4.0835400,
  "tags": {
    "addr:city": "Le Coteau",
    "addr:housenumber": "35",
    "addr:postcode": "42120",
    "addr:street": "Avenue de la Libération",
    "bulk_purchase": "only",
    "name": "Vrac & co",
    "opening_hours:covid19": "restricted",
    "shop": "yes"
  }
},
{
  "type": "node",
  "id": 7495443212,
  "lat": 48.6953168,
  "lon": 2.5041027,
  "tags": {
    "addr:city": "Brunoy",
    "addr:housenumber": "3",
    "addr:postcode": "91800",
    "addr:street": "Boulevard Charles de Gaulle",
    "bulk_purchase": "only",
    "name": "WE VRAC",
    "opening_hours": "Mo-Su 09:00-20:00",
    "organic": "only",
    "payment:american_express": "yes",
    "payment:cash": "yes",
    "payment:credit_cards": "yes",
    "shop": "convenience",
    "website": "http://www.wevrac.fr",
    "wheelchair": "yes"
  }
},
{
  "type": "node",
  "id": 7527090658,
  "lat": 47.4745445,
  "lon": -0.5605929,
  "tags": {
    "bulk_purchase": "only",
    "shop": "convenience"
  }
},
{
  "type": "way",
  "id": 36940774,
  "center": {
    "lat": 45.9061780,
    "lon": 6.1242490
  },
  "nodes": [
    429567100,
    429567101,
    429567102,
    429567103,
    429567104,
    429567105,
    429567107,
    429567100
  ],
  "tags": {
    "addr:city": "Annecy",
    "addr:housenumber": "4",
    "addr:postcode": "74000",
    "addr:street": "Rue Joseph Dessaix",
    "building": "yes",
    "bulk_purchase": "only",
    "delivery:covid19": "yes",
    "name": "day by day",
    "opening_hours": "Tu-Sa 09:30-13:00,14:30-19:00",
    "opening_hours:covid19": "Mo,We,Fr,Sa 09:30-19:00",
    "organic": "yes",
    "phone": "+33450627163",
    "shop": "convenience",
    "source": "cadastre-dgi-fr source : Direction Générale des Impôts - Cadastre;mise à jour : 2008",
    "takeaway:covid19": "yes",
    "website": "http://daybyday-shop.com/magasin/annecy"
  }
},
{
  "type": "way",
  "id": 68590729,
  "center": {
    "lat": 44.8549988,
    "lon": 0.4853730
  },
  "nodes": [
    824672260,
    824687773,
    3505217926,
    824651002,
    824689523,
    824716456,
    824672260
  ],
  "tags": {
    "building": "yes",
    "bulk_purchase": "only",
    "facebook": "https://www.facebook.com/Epicerie-Pêle-Mêle-212900379092022",
    "name": "Épicerie Pêle-mêle",
    "organic": "only",
    "shop": "convenience",
    "source": "cadastre-dgi-fr source : Direction Générale des Impôts - Cadastre. Mise à jour : 2010"
  }
},
{
  "type": "way",
  "id": 69122480,
  "center": {
    "lat": 43.2824954,
    "lon": 5.3732085
  },
  "nodes": [
    829144760,
    829143104,
    829212652,
    829140591,
    829170423,
    829240472,
    829245007,
    829144760
  ],
  "tags": {
    "addr:housenumber": "17",
    "building": "yes",
    "bulk_purchase": "only",
    "contact:facebook": "https://www.facebook.com/ChezFrancetteVauban/",
    "name": "Chez Francette",
    "opening_hours": "Mo-Fr 09:30-13:00,16:00-19:30; Sa 09:30-13:00",
    "organic": "only",
    "shop": "convenience",
    "source": "cadastre-dgi-fr source : Direction Générale des Impôts - Cadastre. Mise à jour : 2010",
    "website": "https://www.chezfrancette.fr/",
    "wheelchair": "yes"
  }
},
{
  "type": "way",
  "id": 69133158,
  "center": {
    "lat": 43.2836474,
    "lon": 5.3836889
  },
  "nodes": [
    829205895,
    829176926,
    829257183,
    829180512,
    829146272,
    829205895
  ],
  "tags": {
    "building": "yes",
    "bulk_purchase": "only",
    "facebook": "https://www.facebook.com/pg/LesToquesduBocal",
    "name": "Les Toqués du Bocal",
    "organic": "yes",
    "shop": "convenience",
    "source": "cadastre-dgi-fr source : Direction Générale des Impôts - Cadastre. Mise à jour : 2010"
  }
},
{
  "type": "way",
  "id": 71051282,
  "center": {
    "lat": 48.7470248,
    "lon": 2.2669328
  },
  "nodes": [
    845712618,
    845729316,
    845737294,
    845730591,
    845719449,
    845747724,
    845747485,
    2585788410,
    2585788411,
    845752041,
    845784431,
    845712618
  ],
  "tags": {
    "building": "yes",
    "bulk_purchase": "only",
    "name": "Tonton Vrac",
    "opening_hours:covid19": "Tu-Su 09:00-21:00",
    "organic": "only",
    "shop": "convenience",
    "source": "extraction vectorielle v1 cadastre-dgi-fr source : Direction Générale des Impôts - Cadas. Mise à jour : 2010"
  }
},
{
  "type": "way",
  "id": 71210428,
  "center": {
    "lat": 44.9327149,
    "lon": 4.8932333
  },
  "nodes": [
    847685084,
    847685219,
    847686002,
    847685571,
    2503403931,
    847684658,
    847684764,
    847686458,
    847685954,
    847685084
  ],
  "tags": {
    "addr:city": "Valence",
    "addr:housenumber": "48",
    "addr:postcode": "26000",
    "addr:street": "Rue Madier de Montjau",
    "bulk_purchase": "only",
    "name": "day by day",
    "opening_hours": "Mo 10:00-19:30; Tu 10:00-17:00; Fr 12:00-19:30; Sa 09:00-19:00",
    "opening_hours:covid19": "same",
    "organic": "yes",
    "phone": "+33475628232",
    "shop": "convenience",
    "source": "cadastre-dgi-fr source : Direction Générale des Finances Publiques - Cadastre. Mise à jour : 2017",
    "website": "http://daybyday-shop.com/magasin/valence"
  }
},
{
  "type": "way",
  "id": 80547744,
  "center": {
    "lat": 46.1341028,
    "lon": 6.2685339
  },
  "nodes": [
    939610098,
    939914258,
    939920808,
    939912196,
    939911063,
    939917354,
    939610098
  ],
  "tags": {
    "addr:city": "Reignier",
    "addr:housenumber": "549",
    "addr:postcode": "74930",
    "addr:street": "Grande Rue",
    "building": "yes",
    "bulk_purchase": "only",
    "currency:EUR": "yes",
    "level": "0",
    "name": "Épicerie & Cie - Reignier-Esery",
    "organic": "yes",
    "payment:cash": "yes",
    "payment:coins": "yes",
    "payment:credit_cards": "yes",
    "phone": "+33 450 82 70 36",
    "shop": "convenience",
    "source": "cadastre-dgi-fr source : Direction Générale des Impôts - Cadastre. Mise à jour : 2010",
    "website": "https://epicerieetcie.com"
  }
},
{
  "type": "way",
  "id": 81701708,
  "center": {
    "lat": 47.2755741,
    "lon": -1.3633424
  },
  "nodes": [
    951922241,
    951798171,
    951872443,
    951817882,
    951922241
  ],
  "tags": {
    "addr:city": "La Chapelle Basse Mer",
    "addr:housenumber": "38 bis",
    "addr:postcode": "44450",
    "addr:street": "l'Artuzière",
    "building": "yes",
    "bulk_purchase": "only",
    "contact:phone": "+33 6 81 43 74 26",
    "contact:website": "https://lesjardinsdelavallee.jimdo.com/",
    "name": "Les Jardins de la Vallée",
    "opening_hours": "We,Fr 15:00-19:30; Sa 09:00-13:00",
    "organic": "only",
    "shop": "farm",
    "source": "cadastre-dgi-fr source : Direction Générale des Impôts - Cadastre. Mise à jour : 2010"
  }
},
{
  "type": "way",
  "id": 82256337,
  "center": {
    "lat": 45.7518192,
    "lon": 4.8307978
  },
  "nodes": [
    957890294,
    957890847,
    957890367,
    957890494,
    957890621,
    957890766,
    957890334,
    957890690,
    1603479162,
    957890577,
    2527330459,
    957890294
  ],
  "tags": {
    "brand": "Day by day",
    "building": "yes",
    "bulk_purchase": "only",
    "contact:facebook": "https://www.facebook.com/magasinsdaybyday/",
    "contact:instagram": "https://www.instagram.com/day_by_day_vrac_shop/",
    "contact:twitter": "https://www.linkedin.com/company/day-by-day/",
    "delivery:covid19": "yes",
    "email": "daybyday.lyon.ainay@gmail.com",
    "name": "Day by day Lyon",
    "opening_hours": "Mo 16:00-19:00 ; Tu-Th 10:00-13:00,16:00-19:00 ; Fr-Sa 10:00-13:00,14:30-19:00",
    "opening_hours:covid19": "open",
    "organic": "yes",
    "phone": "+33 4 72 41 87 51",
    "ref:FR:SIRET": "81920176500024",
    "shop": "convenience",
    "source": "cadastre-dgi-fr source : Direction Générale des Impôts - Cadastre. Mise à jour : 2010",
    "takeaway:covid19": "yes",
    "website": "http://daybyday-shop.com/magasin/lyon"
  }
},
{
  "type": "way",
  "id": 85100144,
  "center": {
    "lat": 50.6275048,
    "lon": 3.1085841
  },
  "nodes": [
    987123457,
    987174659,
    987165080,
    987164567,
    442306122,
    987117340,
    987066093,
    987155361,
    987077485,
    987123457
  ],
  "tags": {
    "amenity": "bicycle_repair_station",
    "building": "yes",
    "bulk_purchase": "only",
    "contact:email": "hellobocaux@gmail.com",
    "contact:phone": "+33328536392",
    "delivery:covid19": "yes",
    "description:covid19": "Sur commandes exclusivement, par mail : hellobocaux@gmail.com ou téléphone: 03 28 53 63 92. Soyez précis et indiquez vos coordonnées et moyen de paiement.",
    "diet": "vegetarian;vegan",
    "facebook": "https://www.facebook.com/HelloBocauxHellemmes/",
    "name": "Hello Bocaux",
    "opening_hours": "Tu,Th,Fr 09:30-13:00,15:30-19:30; We,Sa 9:00-13:00,15:30-19:30",
    "opening_hours:covid19": "Tu-Sa 12:00-13:00,15:00-16:00",
    "organic": "only",
    "shop": "convenience",
    "source": "cadastre-dgi-fr source : Direction Générale des Impôts - Cadastre. Mise à jour : 2010",
    "start_date": "2018"
  }
},
{
  "type": "way",
  "id": 86236185,
  "center": {
    "lat": 46.6714370,
    "lon": -1.4240835
  },
  "nodes": [
    1000849855,
    1000952161,
    1000863404,
    1000888152,
    1000968300,
    1000979999,
    1000872782,
    1000944800,
    1000849855
  ],
  "tags": {
    "building": "yes",
    "bulk_purchase": "only",
    "name": "Chez Pascal",
    "opening_hours:covid19": "open",
    "organic": "only",
    "shop": "convenience",
    "source": "cadastre-dgi-fr source : Direction Générale des Impôts - Cadastre. Mise à jour : 2010",
    "website": "http://www.epiceriechezpascal.com/"
  }
},
{
  "type": "way",
  "id": 90733605,
  "center": {
    "lat": 49.2582228,
    "lon": 4.0419552
  },
  "nodes": [
    1052766177,
    1052614805,
    1052362345,
    6205198436,
    1052528685,
    1052753821,
    1052345578,
    1052766177
  ],
  "tags": {
    "addr:city": "Reims",
    "addr:housenumber": "26",
    "addr:postcode": "51100",
    "addr:street": "Avenue Jean Jaurès",
    "brand": "Day by Day",
    "bulk_purchase": "only",
    "name": "Day by Day",
    "opening_hours": "Tu-Sa 10:00-13:30,15:00-19:00; Su 10:00-13:00",
    "opening_hours:covid19": "Tu 10:00-12:45,15:00-18:00;We-Sa 10:00-12:45,15:00-17:30",
    "operator": "Analya",
    "organic": "yes",
    "phone": "+33326799650",
    "ref:FR:SIRET": "83868937000016",
    "shop": "convenience",
    "source": "cadastre-dgi-fr source : Direction Générale des Impôts - Cadas. Mise à jour : 2010",
    "start_date": "2018-05-15",
    "type:FR:APE": "47.11B",
    "website": "http://daybyday-shop.com/magasin/reims"
  }
},
{
  "type": "way",
  "id": 90808716,
  "center": {
    "lat": 45.9353520,
    "lon": -0.9583380
  },
  "nodes": [
    1054270947,
    1054059790,
    1054145610,
    1054004178,
    1054178309,
    1054040969,
    1053910242,
    1054206589,
    1054270947
  ],
  "tags": {
    "addr:housenumber": "36",
    "building": "yes",
    "bulk_purchase": "only",
    "facebook": "https://www.facebook.com/Les-Bocaux-de-M%C3%A9lanie-237574150151335/",
    "name": "Les bocaux de Mélanie",
    "opening_hours": "Tu-Su 09:00-12:30,14:00-19:00",
    "organic": "only",
    "phone": "+33 546991547",
    "shop": "convenience",
    "source": "cadastre-dgi-fr source : Direction Générale des Impôts - Cadastre. Mise à jour : 2010"
  }
},
{
  "type": "way",
  "id": 119804092,
  "center": {
    "lat": 46.1616695,
    "lon": -1.1481015
  },
  "nodes": [
    1344709702,
    1344709445,
    1344709444,
    1344710563,
    1344710808,
    1344711102,
    1344711114,
    1344713439,
    1344713704,
    1344709920,
    1344709702
  ],
  "tags": {
    "addr:city": "LA ROCHELLE",
    "addr:housenumber": "12",
    "addr:postcode": "17000",
    "addr:street": "Rue Gambetta",
    "building": "yes",
    "bulk_purchase": "only",
    "contact:email": "uba.unboldair@gmail.com",
    "delivery:covid19": "no",
    "description:covid19": "Possibilité de passer commande par téléphone ou uba.unboldair@gmail.com",
    "name": "Un Bol d'Air",
    "opening_hours": "Tu-Fr 10:00-19:00; Sa 9:00-19:00; Su10:00-13:00",
    "opening_hours:covid19": "Mo-Fr 10:00-13:00,15:00-19:00; Sa 10:00-18:00",
    "operator": "Adrien et Cyril",
    "organic": "only",
    "payment:cash": "yes",
    "payment:mastercard": "yes",
    "payment:visa": "yes",
    "shop": "convenience",
    "source": "cadastre-dgi-fr source : Direction Générale des Impôts - Cadastre. Mise à jour : 2011",
    "takeaway:covid19": "yes",
    "website": "https://www.unboldair-epicerie-bio-larochelle.fr/",
    "zero_waste": "only"
  }
},
{
  "type": "way",
  "id": 124752185,
  "center": {
    "lat": 46.8016625,
    "lon": 4.4190838
  },
  "nodes": [
    1387358832,
    1387358961,
    1387358736,
    1387358711,
    1387358612,
    1387358832
  ],
  "tags": {
    "addr:city": "Le Creusot",
    "addr:housenumber": "28",
    "addr:postcode": "71200",
    "addr:street": "Rue de la Couronne",
    "building": "yes",
    "bulk_purchase": "only",
    "name": "Les bocaux de la Couronne",
    "shop": "convenience",
    "source": "extraction vectorielle v1 cadastre-dgi-fr source : Direction Générale des Impôts - Cadas. Mise à jour : 2010"
  }
},
{
  "type": "way",
  "id": 126909504,
  "center": {
    "lat": 47.4725385,
    "lon": -0.5528465
  },
  "nodes": [
    1405660712,
    2852670314,
    1405659190,
    1405659912,
    1405659965,
    1405660711,
    1405660924,
    1405660450,
    1405661380,
    1405661184,
    1405661576,
    1405660712
  ],
  "tags": {
    "addr:city": "Angers",
    "addr:housenumber": "29",
    "addr:postcode": "49100",
    "addr:street": "Rue de la Roë",
    "building": "yes",
    "bulk_purchase": "only",
    "delivery:covid19": "yes",
    "description:covid19": "Liste des produits sur le site day by day et dernières informations sur la page Facebook/instagram virginie de day by day Angers",
    "name": "day by day",
    "opening_hours": "Tu-Fr 10:00-14:00,15:00-19:00; Sa 10:00-19:00",
    "opening_hours:covid19": "Tu 13:00-19:00; We-Fr 10:00-15:00; Sa 10:00-17:00",
    "organic": "yes",
    "phone": "+33973271227",
    "shop": "convenience",
    "source": "cadastre-dgi-fr source : Direction Générale des Impôts - Cadastre. Mise à jour : 2011",
    "website": "http://daybyday-shop.com/magasin/angers"
  }
},
{
  "type": "way",
  "id": 144494406,
  "center": {
    "lat": 45.5305230,
    "lon": 4.6172470
  },
  "nodes": [
    1580537189,
    1580536901,
    1580536964,
    1580536833,
    1580536808,
    1580536762,
    1580536643,
    1580536546,
    1580536581,
    1580536388,
    1580536184,
    1580536246,
    1580536334,
    1580536338,
    1580536571,
    1580537189
  ],
  "tags": {
    "building": "yes",
    "bulk_purchase": "only",
    "name": "Épicerie Vrac",
    "shop": "convenience",
    "source": "cadastre-dgi-fr source : Direction Générale des Impôts - Cadastre. Mise à jour : 2012"
  }
},
{
  "type": "way",
  "id": 154772532,
  "center": {
    "lat": 44.8470650,
    "lon": -0.5803290
  },
  "nodes": [
    1672531361,
    1672531292,
    1672530804,
    2242681776,
    1672530742,
    1672531132,
    1672531144,
    1672531263,
    1672531361
  ],
  "tags": {
    "addr:city": "Bordeaux",
    "addr:housenumber": "61",
    "addr:postcode": "33000",
    "addr:street": "Rue Fondaudège",
    "building": "yes",
    "bulk_purchase": "only",
    "description:covid19": "Produit commandables sur https://daybyday-shop.com/nos-produits",
    "dog": "no",
    "name": "Day by day",
    "opening_hours": "Tu-Sa 10:00-13:30,15:00-19:30",
    "opening_hours:covid19": "Tu-Fr 10:00-13:30; Sa 10:00-13:30,15:00-19:30",
    "organic": "yes",
    "phone": "+33 5 56 44 37 59",
    "shop": "convenience",
    "takeaway:covid19": "yes",
    "website": "http://daybyday-shop.com/magasin/bordeaux"
  }
},
{
  "type": "way",
  "id": 166832220,
  "center": {
    "lat": 50.7485145,
    "lon": 2.2518245
  },
  "nodes": [
    1782605305,
    1782605268,
    1782605100,
    1782605104,
    1782605145,
    1782605150,
    1782605116,
    1782605126,
    1782605065,
    1782605077,
    1782605059,
    1782604996,
    1782605002,
    1782605023,
    1782605166,
    1782605201,
    1782605326,
    1782605305
  ],
  "tags": {
    "addr:housenumber": "1",
    "building": "yes",
    "bulk_purchase": "only",
    "contact:facebook": "https://www.facebook.com/Jars-co-168728967287653",
    "name": "Jars & Co",
    "organic": "only",
    "shop": "convenience",
    "source": "cadastre-dgi-fr source : Direction Générale des Impôts - Cadastre. Mise à jour : 2012"
  }
},
{
  "type": "way",
  "id": 169577607,
  "center": {
    "lat": 44.4981345,
    "lon": 0.9686185
  },
  "nodes": [
    1807385002,
    1807384832,
    1807384409,
    1807384646,
    1807384840,
    1807385002
  ],
  "tags": {
    "building": "yes",
    "bulk_purchase": "only",
    "contact:facebook": "https://www.facebook.com/EpicerieComptoirNature/",
    "name": "Comptoir Nature",
    "organic": "only",
    "shop": "convenience",
    "source": "cadastre-dgi-fr source : Direction Générale des Impôts - Cadastre. Mise à jour : 2012"
  }
},
{
  "type": "way",
  "id": 182938282,
  "center": {
    "lat": 48.3742838,
    "lon": -4.3611342
  },
  "nodes": [
    1932935368,
    1932935365,
    1932935364,
    1932935360,
    1932935361,
    1932935355,
    1932935351,
    1932935350,
    1932935346,
    1932935357,
    1932935359,
    1932935362,
    1932935368
  ],
  "tags": {
    "building": "retail",
    "bulk_purchase": "only",
    "contact:housenumber": "42",
    "contact:street": "Rue Lucie Aubrac",
    "description": "Boutique bretonnante de produits écologiques, durables, spécialisée dans la maison",
    "email": "contact@myplanedenn.com",
    "name": "My Planedenn",
    "phone": "+33 2 56 31 46 02",
    "shop": "chemist",
    "source": "cadastre-dgi-fr source : Direction Générale des Impôts - Cadastre ; mise à jour : 2012",
    "website": "https://www.planedenn.com/"
  }
},
{
  "type": "way",
  "id": 220459134,
  "center": {
    "lat": 50.4597370,
    "lon": 1.7584420
  },
  "nodes": [
    2295732707,
    2295732708,
    2295732709,
    2295732712,
    2295732716,
    2295732721,
    2295732722,
    2295732714,
    2295732710,
    2295732707
  ],
  "tags": {
    "building": "yes",
    "bulk_purchase": "only",
    "disused:shop": "convenience",
    "facebook": "https://www.facebook.com/Sainbios-137427169737634/",
    "name": "Sainbio's",
    "organic": "only",
    "source": "cadastre-dgi-fr source : Direction Générale des Impôts - Cadastre. Mise à jour : 2013"
  }
},
{
  "type": "way",
  "id": 236490934,
  "center": {
    "lat": 46.0320635,
    "lon": 5.6646285
  },
  "nodes": [
    2445146986,
    2445147008,
    2445146998,
    2814690011,
    2445146981,
    2445146984,
    2445146986
  ],
  "tags": {
    "building": "yes",
    "bulk_purchase": "only",
    "contact:facebook": "https://www.facebook.com/lenatureldesours",
    "name": "Le Naturel des Ours",
    "organic": "yes",
    "shop": "cosmetics",
    "source": "cadastre-dgi-fr source : Direction Générale des Finances Publiques - Cadastre. Mise à jour : 2013",
    "wall": "no",
    "website": "https://lenatureldesours.fr/"
  }
},
{
  "type": "way",
  "id": 246530340,
  "center": {
    "lat": 46.0517081,
    "lon": 3.9251515
  },
  "nodes": [
    2535594763,
    2535593872,
    2535593915,
    2535594148,
    2535594178,
    2535594286,
    2535594553,
    2535594803,
    2535594763
  ],
  "tags": {
    "addr:housenumber": "53",
    "building": "yes",
    "bulk_purchase": "only",
    "contact:facebook": "https://www.facebook.com/Le-Bocal-191952564771454/",
    "name": "Le bocal",
    "organic": "only",
    "shop": "convenience",
    "source": "cadastre-dgi-fr source : Direction Générale des Finances Publiques - Cadastre. Mise à jour : 2013",
    "website": "https://lebocalenvrac.fr/"
  }
},
{
  "type": "way",
  "id": 747525048,
  "center": {
    "lat": 49.1966575,
    "lon": -0.4013895
  },
  "nodes": [
    6994644328,
    6994644327,
    6994644326,
    6994644325,
    6994644328
  ],
  "tags": {
    "bulk_purchase": "only",
    "contact:email": "contact@drivelafourmiliere.com",
    "contact:phone": "+33 7 86477447",
    "contact:website": "https://www.drivelafourmiliere.com",
    "name": "La Fourmillière",
    "opening_hours": "Mo, Tu, Th, Fr 08:00-21:00 ; We 08:00-18:00; Sa 09:00-13:00",
    "organic": "yes",
    "shop": "convenience"
  }
}

  ]
}
